name,address,postcode,phonenumber,level,medicalspecialists,provinces
北京协和医院(东院) ,北京市东城区帅府园1号 ,100730,010-65296114〓65124875 ,三甲 ,消化内科、内分泌科、妇产科、麻醉科、血液科、心内科、风湿免疫科、皮肤科、病理科、放射科、核医学科、超声诊断科 ,北京市 
卫生部北京医院 ,北京市东单大华路1号 ,100730,010-65132266(总) ,三甲 ,心脏内科、呼吸内科、神经内科、心胸外科、神经外科、骨科、老年病 ,北京市 
首都医科大学附属北京同仁医院 ,北京市东城区崇文门内大街2号 ,100730,010-58269911(总) ,三甲 ,眼科、耳鼻咽喉科、心血管疾病诊疗、胆肝外科、糖尿病会诊、泌尿外科会诊、国际眼病诊疗、白内障、屈光矫治中心、激光诊疗、临床听力学中心、人工耳蜗植入中心、糖尿病等 ,北京市 
首都医科大学附属北京中医医院〓北京中医医院 ,北京市东城区美术馆后街23号 ,100010,010-64016677(总)64015884 ,三甲 ,针灸推拿、中医内科、肿瘤科、心血管科、消化科、肛肠科、肝病科、妇科、皮肤性病科、肾病科、骨科、外科 ,北京市 
北京地坛医院(原北京市第一传染病医院) ,北京市东城区安外地坛公园13号 ,100011,010-64211031(总) ,三甲 ,传染病、性病、肝病、艾滋病 ,北京市 
北京中医药大学东直门医院 ,北京市东城区海运仓5号 ,100701,010-84013212 ,三甲 ,急症中心、中医脑病、肾病、中医内科、神经内科、内分泌科、呼吸科、血液肿瘤科、中医外科 ,北京市 
北京大学人民医院 ,北京市西城区西直门南大街11号 ,100044,010-68314422(总) ,三甲 ,血液病科、肝病科、骨关节炎科、骨神经科、小儿骨科、妇产科、心血管内科、泌尿内科、儿内科、儿外科、肿瘤科、皮肤科、口腔科、内科等 ,北京市 
北京市急救中心 ,北京市西城区前门西大街103号 ,100031,010-66012863〓66098409 ,三甲 ,神经外科、放射科、传染病科、普外科、心血管内科 ,北京市 
北京大学第一医院 ,北京市西城区西什库大街8号 ,100034,010-66551122(总)66551056 ,三甲 ,眼科、小儿眼科、泌尿外科、神经内科、肾脏内科、心血管外科、妇产科、小儿科、胆道疾病、脑血管疾病、普外科、呼吸内科、中西医结合科、骨科、烧伤科、放射治疗科、体外冲击波碎石、胰十二指肠切除术、全盆脏器切除术、心脏搭桥术、关节置换术、门脉分流断流术等 ,北京市 
首都医科大学附属北京儿童医院 ,北京市西城区南礼士路56号 ,100045,010-68028401 ,三甲 ,小儿血液、急救、普外、中医、小儿复杂先心病的手术治疗、泌尿外科、微创外科、各类脊柱畸形的矫正、神经、呼吸、内分泌、肾病、血液透析、纤维支气管镜、耳鼻喉科、肿瘤、肝胆外科、新生儿、眼科、口腔科、皮科、小儿妇科、脾胃病、消化、心血管等 ,北京市 
中国医学科学院阜外心血管病医院 ,北京市西城区北礼士路167号 ,100037,010-68314466（总）〓68331765 ,三甲 ,心血管内科、心血管外科、大动脉炎、冠心病、肺心病、肺血管病等 ,北京市 
首都医科大学附属北京安定医院 ,北京市西城区德胜门外安康胡同5号 ,100088,010-82085307〓62013330 ,三甲 ,老年精神科、儿童精神科、临床心理科、司法鉴定科、中国药物依赖治疗中心、中医科等 ,北京市 
北京结核病控制研究所 ,北京市西城区新街口东光胡同5号 ,100035,010-62252366〓62252650 ,三甲 ,预防科、细菌检验中心、骨科、淋巴内科 ,北京市 
北京积水潭医院 ,北京市西城区新街口东街31号 ,100035,010-58516688(总)66181603 ,三甲 ,骨科、烧伤科、创伤科、矫形科、呼吸内科、消化内科、血液内科、泌尿内科、神经内科、眼科、恶性骨肿瘤等 ,北京市 
首都医科大学附属北京口腔医院 ,北京市崇文区天坛西里4号 ,100050,010-67099013〓65113737 ,三甲 ,口腔颌面外科、特需医疗中心、口腔特诊科、牙体牙髓科、牙周科、中医粘膜科、儿童口腔科、口腔修复科、口腔正畸科等 ,北京市 
首都医科大学附属北京天坛医院 ,北京市崇文区天坛西里6号 ,100050,010-67016611(总)67018510 ,三甲 ,神经内科、神经外科、医学影像中心、g-刀治疗中心 ,北京市 
中国中医研究院北京广安门医院 ,北京市宣武区广安门内北线阁5号 ,100053,010-88001222〓63013311〓880010 ,三甲 ,肿瘤科、心脑血管病、糖尿病、痹病、肾病、老年病、消化系统疾病 ,北京市 
首都医科大学宣武医院 ,北京市宣武区长椿街45号 ,100053,010-63013355(总)63012835 ,三甲 ,神经内科、心血管内科、神经外科、老年病医疗中心、眼科、耳喉鼻科、血液内科、急诊科等 ,北京市 
首都医科大学附属北京友谊医院 ,北京市宣武区永安路95号 ,100050,010-63014411(总)63154648 ,三甲 ,心胸外科、泌尿外科、眼科、心血管内科、消化内科、感染内科、普外科、骨科、肝病中心、肿瘤中心、热带医学、器官移植、血液科、麻醉科、麻风病、放射科等 ,北京市 
北京中日友好医院 ,北京市朝阳区樱花东路2号 ,100029,010-64221122〓64222969 ,三甲 ,胸外科、皮肤科、肛肠科、心血管内科、肾脏内科、消化内科、内分泌科、心外科、ICU,北京市 
首都儿科研究所附属儿童医院 ,北京市朝阳区雅宝路2号 ,100020,010-65127766 ,三甲 ,呼吸内科、哮喘、心血管内科、新生儿疾病科、神经内科、心肌炎内科、消化内科、内分泌科等 ,北京市 
北京妇产医院〓北京市妇幼保健院 ,北京市朝阳区姚家园路251号 ,100026,010-85976699(总)85979595 ,三甲 ,妇科、产科、新生儿科、计划生育科、男科 ,北京市 
中国医学科学院肿瘤医院 ,北京市朝阳区潘家园南里17号 ,100210,010-67781331(总) ,三甲 ,头颈科、胸部科、腹部科、泌尿科、妇瘤科 ,北京市 
北京朝阳医院 ,北京市朝阳区白家庄路8号 ,100020,010-85231000 ,三甲 ,呼吸、心脏、泌尿、高压氧、职业病、器官移植、实验医学、急诊医学、微创腔镜 ,北京市 
首都医科大学附属北京安贞医院 ,北京市朝阳区安定门外安贞医院 ,100029,010-64412431 ,三甲 ,心脏外科、心脏内科、小儿心脏科、血管外科、呼吸内科、胸外科 ,北京市 
北京大学第三医院 ,北京市海淀区花园北路49号 ,100083,010-62017691(总)62016922 ,三甲 ,不育症、骨科、运动医学、心血管内科、职业病科、消化内科、成形外科、神经内科、呼吸内科等 ,北京市 
中国中医研究院西苑医院 ,北京市海淀区西苑操场1号 ,100091,010-62875599〓62883495 ,三甲 ,心血管科、血液病科、老年病科、呼吸科、肛肠科、肾病科、内分泌科、神经内科 ,北京市 
北京大学第六医院〓北京大学精神卫生研究所 ,北京市海淀区海淀花园北路51号 ,100083,010-82801939 ,三甲 ,老年精神卫生、儿童青少年心理卫生及学习障碍、心理治疗与咨询、情绪障碍、记忆障碍、司法精神病鉴定 ,北京市 
北京肿瘤医院〓北京大学临床肿瘤学院 ,北京市海淀区阜成路52号 ,100036,010-88121122〓88122437 ,三甲 ,胃癌、大肠癌、肝癌、食道癌、血液淋巴系统肿瘤科、肺癌、乳腺癌等 ,北京市 
北京世纪坛医院(原北京铁路总医院) ,北京市海淀区羊坊店铁医路10号 ,100038,010-51875544(总) ,三甲 ,眼科、妇产科、心血管内科、神经内科、肿瘤防治、病理诊断科 ,北京市 
北京中医药大学东方医院 ,北京市丰台区方庄芳星园一区6号 ,100078,010-67689620〓67689653 ,三甲 ,中医脑病中心、全国急症中心、中医内科基地、糖尿病及其并发症和周围血管病的综合治疗 ,北京市 
首都医科大学附属北京佑安医院 ,北京市丰台区右安门外西头条8号 ,100054,010-63292211(总) ,三甲 ,肝炎、艾滋病、人工肝技术治疗、肝脏肿瘤介入治疗、肝移植手术、中西医结合肝病疑难病治疗、消化内镜诊断治疗 ,北京市 
中国康复研究中心〓北京博爱医院 ,北京市丰台区角门北路10号 ,100077,010-67563322(总)67213322 ,三甲 ,创伤性截瘫科、脑血管意外后偏瘫、脊髓损伤康复科、骨关节康复科等 ,北京市 
中国医学科学院整形外科医院 ,北京市石景山八大处路西下庄 ,100041,010-88964826〓88964137 ,三甲 ,整形外科及医学美容 ,北京市 
清华大学第二附属医院〓清华大学玉泉医院(原电子工业部四0二医院) ,北京市石景山区石景山路5号 ,100049,010-88257755(总) ,三甲 ,神经外科、妇产科、骨科 ,北京市 
北京胸部肿瘤结核病医院 ,北京市通州区马厂97号 ,101149,010-69543261 ,三甲 ,结核病、胸部肿瘤、骨肿瘤、呼吸系统疾病的诊断及鉴别诊断 ,北京市 
北京回龙观医院 ,北京市德胜门外回龙观镇 ,100096,010-62716287〓62716285 ,三甲 ,精神病康复科、临床心理科、精神病合并肝炎、结核症及其他障碍科、老年精神病科、司法精神医学鉴定科等 ,北京市 
中国人民解放军总医院〓中国人民解放军第三0一医院 ,北京市海淀区复兴路28号 ,100853,010-66887329〓66937329 ,三甲 ,耳鼻咽喉头颈外科、骨科、老年医学、心血管内外科、神经内外科、眼科、内分泌科、肾病科、医学影像、临床护理等 ,北京市 
中国人民解放军三0二医院 ,北京市四西环中路100号 ,100039,010-63831865〓66933203 ,三甲 ,烧伤科、传染病科、中西医结合肝病科等 ,北京市 
中国人民解放军第三0四医院 ,北京市海淀区阜城路51号 ,100037,010-66867311〓66867459 ,三甲 ,癫痫病、心血管内科、创伤外科、急救、危重病救治、烧伤科、骨科、呼吸科、整形科、脑外科、肿瘤科等 ,
中国人民解放军第三0五医院 ,北京市西城区文津街甲13号 ,100017,010-63096032〓63094213 ,三甲 ,老年病、老年心血管疾病 ,北京市 
中国人民解放军第三0六医院 ,北京市朝阳区德外安翔北路9号 ,100101,010-66356308〓66356729 ,三甲 ,脊柱外科、心血管中心、腹部外科、糖尿病、肿瘤中心、骨科、神经外科、肝胆外科 ,北京市 
中国人民解放军三0七医院〓军事医学院附属医院 ,北京市海淀区北太平路2号 ,100039,010-66931700〓68214647 ,三甲 ,肝胆外科、泌尿外科、骨科、脑外科、放射病、急性中毒科、血液病、肿瘤科等 ,北京市 
中国人民解放军第三0九医院 ,北京市海淀区黑山扈路甲17号 ,100091,010-66767722〓66775010 ,三甲 ,器官移植、肝胆外科、心血管内科、骨科、肿瘤科、结核科 ,北京市 
海军总医院 ,北京市海淀区阜成路6号 ,100037,010-66958024 ,三甲 ,神经外科中心、耳鼻喉科中心、高压氧医学中心、放射医学影像中心、微电极准分子治疗中心、γ-刀治疗中心、呼吸内科、消化内科、血液内科、神经内科、普外科、中医针灸科、眼科、胸外科等 ,北京市 
空军总医院 ,北京市海淀区阜成路30号 ,100036,010-68410099(总)66928114 ,三甲 ,西医正骨科、皮肤科、血液科、内分泌科、心血管内科、心胸外科、神经外科、中医肾病科、性病、航空病中心等 ,北京市 
北京军区总医院 ,北京市东城区东四十条南门仓5号 ,100700,010-66721021〓66721629 ,三甲 ,肝病、创伤骨科、心胸外科、消化内科、心血管内科、肿瘤科、普通外科、神内科、呼吸科等 ,北京市 
武警总医院 ,北京市海淀区永定路69号 ,100039,010-88276688(总) ,三甲 ,骨科、心血管内科、神经外科、耳鼻咽喉科、眼科、口腔科、泌尿外科、普外科等 ,北京市 
中国人民解放军第二炮兵总医院(原中国人民解放军二六二医院) ,北京市西城区新外大街16号 ,100088,010-66927601〓66343055 ,三甲 ,烧伤、心胸外科、呼吸内科、肛肠科 ,北京市 
中国人民解放军第四六六医院 ,北京市海淀区昌运宫15号 ,100089,010-68417550〓68412225 ,三甲 ,胸心血管外科、普通外科、心血管内科、中医科、理疗科、妇产科、肛肠外科、泌尿外科、血液透析中心、消化内科 ,北京市 
天津市中医院 ,天津市河北区中山路125号 ,300140,022-26362431〓26360410 ,三甲 ,中医肾科、中西医结合科、针灸科、按摩科、再生障碍性贫血、白血病、慢性肾功能衰竭、慢性结肠炎、癫痫病、老年性白内障等 ,天津市 
天津市第一中心医院 ,天津市南开区复康路24号 ,300192,022-23626200〓23626032 ,三甲 ,心血管内科、消化内科、脑内科、内分泌科、耳鼻喉科、普外科、移植外科、泌尿外科、影像医学等 ,天津市 
天津市人民医院(原天津市第二中心医院) ,天津市红桥区芥园道130号 ,300121,022-87729532 ,三甲 ,心血管内科、消化内科、呼吸内科、血液内科、内分泌科、普外科、骨外科、心胸外科、脑外科、泌尿外科、妇科、产科、儿科、口腔科、耳鼻喉科、皮肤科、肿瘤科、针灸科等 ,天津市 
天津市第三中心医院〓天津市肝胆病医院 ,天津市津塘路83号 ,300170,022-24315660〓24315132 ,三甲 ,呼吸内科、消化内科、肾内科、心血管内科、血液内科、内分泌科、普外科、心匈外科、泌尿外科、整形外科、骨科、脑系科、妇产科、儿科、皮肤科等 ,天津市 
天津市第四中心医院(原天津铁路中心医院) ,天津市河北区中山路3号 ,300140,022-26283211〓26183057 ,三甲 ,耳鼻喉科、放射科、骨科、心内科、脑外科 ,天津市 
天津医科大学总医院 ,天津市和平区鞍山道154号 ,300052,022-27813550〓27815545 ,三甲 ,心血管内科、肾内科、血液内科、呼吸内科、核医学、普通外科、内科、中西医结合临床、妇产科学、神经病学、放射诊疗科、眼科、脑血管病、癫痫、胸外科、皮肤病、影像学等 ,天津市 
天津医科大学第二附属医院 ,天津市河西区平江道23号 ,300211,022-28327859〓28317828 ,三甲 ,内科、脑系内科、外科、胸外科、心外科、泌尿外科、心脏科、骨科、妇科、产科、儿科、皮肤科、耳鼻喉科、传染病科、口腔科等 ,天津市 
天津医科大学第三附属医院 ,天津市河西区三义庄街马场道91号 ,300203,022-23140817〓23140830 ,三甲 ,老年医学中心、心血管科、呼吸内科、整形外科、颈肩病科、耳鼻喉科、消化内科、心胸外科、肛肠科、皮肤性病科等 ,天津市 
天津医科大学口腔医院 ,天津市和平区新兴街气象台路12号 ,300070,022-23348731〓23342266 ,三甲 ,口腔内科、口腔修复科、病理科等 ,天津市 
天津医科大学附属肿瘤医院〓天津市肿瘤医院 ,天津市体院北环湖西路 ,300060,022-23359929(总)23524925 ,三甲 ,胸科、腹部、肿瘤、骨软科、头颈科、乳,天津市 
天津中医学院第一附属医院 ,天津市南开区鞍山西道314号 ,300193,022-27383138〓27383171 ,三甲 ,针灸、消化科、心血管疾病科、肾病、血液病、糖尿病、风湿病科、肝胆病科、恶性肿瘤科、中医急症、儿科、病理科等 ,天津市 
天津中医学院第二附属医院 ,天津市河北区王串场真理道2号路 ,300150,022-60511866〓60514338 ,三甲 ,妇科、脾胃、心内科、呼吸病、风湿病、肛肠病、糖尿病、肾病、脑病、外科等 ,天津市 
天津市公安局安康医院 ,天津市河北区建昌道34号 ,300240,022-26321788〓26320762 ,三甲 ,司法精神医学鉴定、精神病遗传研究室等 ,天津市 
天津医院 ,天津市河西区解放南路406号 ,300211,022-28332775〓28273637 ,三甲 ,内科、显微外科、手外科、创伤科、骨科、关节炎科、五官科、放射科、显微外科、核医学科等 ,天津市 
天津市儿童医院 ,天津市河西区马场道225号 ,300074,022-23519459〓23519248〓235511 ,三甲 ,心脏内科、肾内科、血液内科、眼科等 ,天津市 
天津市安定医院 ,天津市河西区吴家窑大街39号 ,300074,022-23352681〓23534225 ,三甲 ,精神病科、中西医结合科、康复科等 ,天津市 
天津市环湖医院 ,天津市河西区气象台路122号 ,300060,022-23359857〓23354953 ,三甲 ,脑系外科、神经外科 ,天津市 
天津市心理卫生医院 ,天津市和平区四平东道29号 ,300020,022-27300132〓27227891 ,三甲 ,门诊部、预防保健科、心理诊断室、娱疗室等 ,天津市 
天津市中心妇产科医院 ,天津市和平区营口道210号 ,300052,022-23043021 ,三甲 ,产科、妇科、中西医结合科 ,天津市 
天津市眼科医院 ,天津市和平区甘肃路和多伦道交口 ,300022,022-27305083〓81178117 ,三甲 ,,天津市 
天津市胸科医院 ,天津市和平区西安道93号 ,300051,022-23191234 ,三甲 ,胸科 ,天津市 
天津市口腔医院 ,天津市和平区大沽北路75号 ,300041,022-23321470〓27126506 ,三甲 ,,天津市 
天津市整形外科医院 ,天津市和平区大沽路75号 ,300041,022-27128131 ,三甲 ,,天津市 
天津市长征医院 ,天津市和平区南门外大街243号 ,300021,022-27345590〓27347353 ,三甲 ,皮肤科、性病专科、医学美容科等 ,天津市 
天津市人民医院滨江分院 ,天津市和平区滨江道205号 ,300022,022-87729532〓87729503 ,三甲 ,大肠肛门病专科 ,天津市 
天津市传染病医院 ,天津市南开区苏堤路75号 ,300192,022-23004406〓23004421 ,三甲 ,慢性肝炎、重型肝炎、传染内科等 ,天津市 
天津市中西医结合医院〓天津市南开医院 ,天津市南开区三纬路122号 ,300100,022-27022268〓27379655 ,三甲 ,急腹症、临床外科、胆胰病、创伤外科、消化内科 ,天津市 
天津市大港医院 ,天津市大港区石化路1号 ,300270,022-25990384〓25992141 ,三甲 ,内外科、骨科、传染科 ,天津市 
海河医院(民营)(原中铁第十八工程集团中心医院) ,天津市津南区双港镇 ,300350,022-28583059〓28591387 ,三甲 ,心脑血管疾病、口腔镶牙、牙齿美容、烧伤等 ,天津市 
天津市宝坻区人民医院 ,天津市宝坻区城关镇百间居委会 ,301800,022-29241700〓29241553 ,三甲 ,消化血液科、呼吸心血管科、泌尿科等 ,天津市 
武警天津部队医院 ,天津市河东区程林庄道 ,300300,022-24373092 ,三甲 ,烧伤科、儿科 ,天津市 
中国人民解放军第二五四医院 ,天津市河北区五马路160号 ,300142,022-26355984 ,三甲 ,,天津市 
中国人民解放军空军天津医院〓中国人民解放军四六四医院 ,天津市南开区李七庄凌庄子道47-1号 ,300381,022-84632515 ,三甲 ,骨科、心内科、肾病、神经内科、不孕不育、中医针炙 ,天津市 
河北医科大学第一医院〓河北医科大学第一临床医学院 ,河北省石家庄市东岗路89号 ,50031,0311-85917000〓85917290 ,三甲 ,帕金森病、癫痫病、脑瘫、肝病等 ,河北省 
河北医科大学第二医院 ,河北省石家庄市和平西路215号 ,50000,0311-87042553〓87046901 ,三甲 ,神经内科、消化内科、血液内科、妇产科、泌尿外科、心血管内科、心血管外科、中西医结合临床、眼科、泌尿外科等 ,河北省 
河北医科大学第三医院 ,河北省石家庄市自强路139号 ,50051,0311-87027951〓87023626 ,三甲 ,消化内科、眼科、口腔科、整形外科、心外科、肾病科、肿瘤科、烧伤科、心内科、呼吸内科、感染科 ,河北省 
河北医科大学第四医院〓河北省肿瘤医院 ,河北省石家庄市健康路12号 ,50011,0311-86033941〓86077634 ,三甲 ,呼吸内科、肾内科、耳鼻喉科、激光科、儿科、放疗科、妇瘤科、激光科、康复科、口腔科、泌尿科等 ,河北省 
河北省人民医院 ,河北省石家庄市和平西路348号 ,50051,0311-85989696〓85988120 ,三甲 ,心血管内科、老年病科、中医眼科、胸外科、妇产科、心外科、中医科、肿瘤科、皮肤性病科 ,河北省 
河北中医学院附属医院〓河北省中医院 ,河北省石家庄市长安区中山东路389号 ,50011,0311-5990114〓85990111 ,三甲 ,中医内科、外科、胃肠科、肿瘤科、骨伤科、妇科、儿科、眼科、耳鼻喉科、口腔科、肛肠科、皮肤科、康复科、针灸科、按摩科等 ,河北省 
河北省儿童医院〓河北省第五医院 ,石家庄市长安区建华南大街133号 ,50031,0311-85054165〓85054510 ,三甲 ,新生儿内科、小儿心脏外科 ,河北省 
石家庄市第一医院 ,河北省石家庄市范西路34号 ,50011,0311-86044912〓86044925 ,三甲 ,内科、外科、妇科、儿科、中医科、保健科。 ,河北省 
河北医科大学中医学院附属医院〓石家庄市中医院 ,河北省石家庄市中山西路233号 ,50051,0311-87895705 ,三甲 ,中风病科、肾病科、外科、病理科、内镜室科、心血管专科、肛肠病、风湿病、周围血管病、肾病、糖尿病、骨伤科、眼科、前列腺疾病等 ,河北省 
邯郸市中心医院 ,河北省邯郸市中华南大街20号 ,56001,0310-2118001〓2118016 ,三甲 ,神经外科、内分泌科、心血管内科、泌尿外科、肝胆外科等 ,河北省 
邯郸市第一医院 ,河北省邯郸市丛台路24号 ,56002,0310-3026975(总)3023547 ,三甲 ,心内科、神经内科、老年病科、骨科、呼吸内科 ,河北省 
邯郸市中医院 ,河北省邯郸市和平路311号 ,56001,0310-3012033〓3010924(总) ,三甲 ,内科、骨科、外科、脉管炎科、脑血管病、绦虫、脑囊虫病科等 ,河北省 
峰峰集团公司总医院 ,河北省邯郸市峰峰矿区鼓山南街2号 ,56200,0310-5013011(总) ,三甲 ,骨科、各种皮瓣移植修复软组织损伤等 ,河北省 
河北大学附属医院(原河北省职工医学院附属医院) ,河北省保定市南市区红星路108号 ,71000,0312-5020004〓5981600 ,三甲 ,心血管内科、神经内科、呼吸内科、消化内科、血液内科、泌尿内科 ,河北省 
河北省第六人民医院〓河北省精神卫生中心〓河北省职工医学院第二附属医院 ,河北省保定市南市区卫生路64号 ,71000,0312-5079277 ,三甲 ,精神科、司法医学鉴定科、综合科、康复科 ,河北省 
保定市第一中医院(原保定地区中医院) ,河北省保定市裕华西路16号 ,71000,0312-2023310〓2023687 ,三甲 ,心脑血管病、肝胆病、胃肠病、肾病、糖尿病等 ,河北省 
保定市妇幼保健院 ,河北省保定市环城南路1号 ,71000,0312-2022127 ,三甲 ,妇科、产科、儿科、新生儿科、儿童保健科等 ,河北省
涿州市结核病医院 ,河北省涿州市 ,72750,0312-3632363 ,三甲 ,,河北省 
河北北方学院附属第一医院 ,河北省张家口市长青路12号 ,75000,0313-8043555〓8022373 ,三甲 ,心血管内科、消化内科、呼吸内科、血液内科 ,河北省 
承德医学院附属医院 ,河北省承德市南营子大街36号 ,67000,0314-2279350 ,三甲 ,皮肤性病科、神经内科、肿瘤科、泌尿外科 ,河北省 
承德市中心医院〓承德医学院第二附属医院 ,河北省承德市西大街路北22号 ,67000,0314-2024428〓2022468(总) ,三甲 ,普外科、心胸外科、循环内科、骨外科 ,河北省 
河北医科大附属唐山工人医院 ,河北省唐山市路北区文化路27号 ,63000,0315-3722104〓2810190 ,三甲 ,消化科、神经内科、内分泌科、泌尿外科、心血管科、烧伤科、肾移植等 ,河北省 
唐山市人民医院〓唐山市肿瘤医院 ,河北省唐山市路南区胜利路65号 ,63001,0315-2865148 ,三甲 ,肿瘤科、神经内科、神经外科、肝胆外科 ,河北省 
唐山市第四医院(原唐山市肺科医院) ,河北省唐山市学警路南头 ,63001,0315-2964436〓2961721 ,三甲 ,结核病 ,河北省 
唐山市第六医院(原唐山市妇幼保健院) ,河北省唐山市路北区建设南路14号 ,63000,0315-2824751 ,三甲 ,优生遗传、妇科、病理新生儿科、小儿外科、血液科等 ,河北省 
唐山市中医院 ,河北省唐山市康庄道3号 ,63000,0315-2822661〓2856374 ,三甲 ,肛肠病、心血管内科、心胸外科、神经外科、中西医结合眼科治疗等 ,河北省 
华北煤炭医学院附属医院 ,河北省唐山市建设南路73号 ,63000,0315-3725358〓3725874 ,三甲 ,心肺移植科、脑科、脊髓脊柱伤病、介入科等 ,河北省 
开滦医院 ,河北省唐山市新华东道57号 ,63000,0315-3022343 ,三甲 ,肝胆外科、神经外科、泌尿外科、心胸外科、神经内科、心血管疾病 ,河北省 
廊坊市人民医院 ,河北省廊坊市新华路37号 ,65000,0316-2037347〓2039022 ,三甲 ,创伤骨科、肝胆外科、神经外科、妇产科、内分泌激素替代疗法、急诊科等 ,河北省 
廊坊市中医院 ,河北省廊坊市银河北路108号 ,65000,0316-2335009〓2335006 ,三甲 ,血液病、老年病、疑难杂症、针灸科、肛肠外科 ,河北省 
中国石油天然气总公司中心医院 ,河北省廊坊市新开路51号 ,65000,0316-2073446〓2075372 ,三甲 ,介入放射科、心血管内科、神经内科、骨科、泌尿外科、儿科等 ,河北省 
沧州市中心医院 ,河北省沧州市新华中路201号 ,61001,0317-2104641〓2075685 ,三甲 ,儿科、眼科、烧伤科、骨科、心血管内科、血液内科 ,河北省 
沧州市中西医结合医院〓沧州市第二医院 ,河北省沧州市南环西路22号 ,61001,0317-2078976〓2878600 ,三甲 ,骨关节科、手外科、血液净化、病理科 ,河北省 
华北石油管理局总医院 ,河北省任丘市 ,62552,0317-2723034 ,三甲 ,玻璃体切割，超声乳化白内障摘除、人工晶体植入术、心脏搭桥术、肾移植、膀胱全切、尿道改道术、肾癌根治术、发音重建、断指再植、腰椎盘摘除 ,河北省 
衡水市哈励逊国际和平医院〓衡水市人民医院 ,河北省衡水市桃城区人民中路2号 ,53000,0318-2123835〓2186969 ,三甲 ,神经外科、心肾内科、脑血管介入等 ,河北省 
邢台市人民医院 ,河北省邢台市红星西街 ,54001,0319-3286194〓3286269 ,三甲 ,泌尿外科、康复科等 ,河北省 
秦皇岛市第一医院 ,河北省秦皇岛市文化北路22号 ,66000,0335-3032042 ,三甲 ,心血管病、神经内外科、心脏内外科 ,河北省
中国人民解放军白求恩国际和平医院 ,河北省石家庄市中山西路6号 ,50082,0311-87998210〓87998218 ,三甲 ,心血管内科、肝胆外科、烧伤整形科、耳鼻喉科、呼吸内科、消化内科、神经内科、肾内科、普外科、心胸外科等 ,河北省 
中国人民解放军第二五一医院 ,河北省张家口市建国路13号 ,75000,0313-8785027〓8785000 ,三甲 ,烧伤中心、神经脑疾病中心、骨科中心、心肺疾病中心、肿瘤诊疗中心、妇儿中心、肾病中心、消化内外科中心 ,河北省 
中国人民解放军第二五二医院 ,河北省保定市花园街81号 ,71000,0312-2058005〓2058114 ,三甲 ,创伤骨科、心肾科、神经内(外)科、泌尿外科、心胸外科 ,河北省 
河北中国人民解放军第二六六医院 ,河北省承德市大佛寺北 ,67000,0314-2162692 ,三甲 ,心血管内科、消化内科、呼吸内科、内分泌内科、神经内科、血液内科、泌尿内科、普外科、骨外科、胸外科、神经外科、创伤外科、五官科等 ,河北省 
山西医科大学第一医院〓山西医科大学第一临床医学院 ,山西省太原市解放南路85号 ,30001,0351-4044111(总)4048624 ,三甲 ,呼吸科、消化科、普外科、神外科、内分泌科、放射科、骨科、心血管科、核医学科等 ,山西省 
山西医科大学第二医院〓山西红十字会医院 ,山西省太原市五一路382号 ,30001,0351-3071156〓3281328 ,三甲 ,血液内科、骨科、心胸外科、呼吸内科、妇科、康复医学科等 ,山西省 
山西省中医学院附属医院(原山西省中医药研究所) ,山西省山西太原市并州西街46号 ,30012,0351-4668111 ,三甲 ,肝病、肾病、糖尿病、创伤骨科等 ,山西省 
山西省人民医院 ,太原市双塔寺街99号 ,30012,0351-4960131 ,三甲 ,神经外科、心血管外科、口腔防治中心、乳腺外科、血管外科 ,山西省 
山西省儿童医院〓山西省妇幼保健院 ,山西省太原市新民北街13号 ,30013,0351-3361527〓3360761 ,三甲 ,急救中心、新生儿科、儿外科、产科、儿保科、康复科 ,山西省 
山西省眼科医院 ,山西省太原市府东街252号 ,30002,0351-2028215〓4136335 ,三甲 ,视网膜玻璃体病组、斜视与小儿眼病科、角膜病组 ,山西省 
山西中医学院中西医结合附属医院(原太原铁路中心医院) ,山西省太原市府东街13号 ,30001,0351-2631077(总)2621437 ,三甲 ,,山西省 
长治医学院附属和平医院 ,山西省长治市延安南路50号 ,46000,0355-3128018 ,三甲 ,心血管内科、血液内科、心胸外科、传染科、白血病的免疫学、细胞遗传学等 ,山西省 
山西省永济五七五工厂职工医院 ,永济市 ,44503,0359-8068400〓8100523 ,三甲 ,普外科、心血管疾病等 ,山西省 
中国人民解放军第二六四医院 ,太原市迎泽区桥东街 ,30001,0351-4926111 ,三甲 ,血液内科、妇科、急诊科、心血管内科等 ,山西省 
内蒙古医学院附属医院 ,呼和浩特市回民区通道北街1号 ,10050,0471-6965931〓6935749 ,三甲 ,泌尿外科、普外科、妇产科 ,内蒙古自治 
内蒙古医学院第二附属医院 ,呼和浩特市营坊道1号 ,10030,0471-6351276 ,三甲 ,骨科 ,内蒙古自治 
内蒙古医学院第三附属医院〓包头市包钢职工医院 ,包头市昆都仑区少先路20号 ,14010,0472-2126411 ,三甲 ,呼吸内科、烧伤科、心血管内科、消化内科、心胸外科、脑外科、内分泌科 ,内蒙古自治 
内蒙古自治区医院 ,呼和浩特市新城区昭乌达路20号 ,10017,0471-6620000(总) ,三甲 ,心血管内科、消化内科、呼吸内科、肾内科、内分泌内科、血液内科、神经内科、肿瘤科、普外科、脑外科、泌尿外科、烧伤科、妇产科、儿科、口腔科、眼科、耳鼻喉科、皮肤科等 ,内蒙古自治 
内蒙古自治区中蒙医医院 ,呼和浩特市新城区健康街15号 ,10020,0471-6921203 ,三甲 ,蒙医五疗萨病科、中医心病科 ,内蒙古自治 
内蒙古科技大学第一附属医院(原包头医学院第一附属医院) ,包头市昆都伦区钢铁大街25号 ,14010,0472-2125141〓2129235 ,三甲 ,肾内科、麻醉机、心血管内科、骨科、分内泌科 ,内蒙古自治 
包头市中心医院(原包头市第二医院) ,包头市东河区环城路1号 ,14040,0472-4172299(总) ,三甲 ,神经内科、肿瘤外科、心血管外科、消化内科、心脏外科、神经外科、心脏内科等 ,内蒙古自治 
赤峰市医院 ,赤峰市昭乌达路中段一号 ,24000,0476-8331476〓8335712 ,三甲 ,消化内科、呼吸内科、口腔科、耳鼻喉科、心血管内科、儿科、骨外科、神经外科、泌尿外科、心胸外科、心脏直视手术、脑动脉瘤夹闭术、同种异体肾脏移植术等 ,内蒙古自治 
中国人民解放军第二五三医院 ,呼和浩特市爱民路 ,10051,0471-6515511〓6506491 ,三甲 ,中医科、神经外科、骨科、妇产科、心、肾内科、普通外科、心胸外科 ,内蒙古自治 
中国医科大学第一附属医院 ,沈阳市和平区南京北街155号 ,110001,024-23269384〓22703576 ,三甲 ,呼吸内科、皮肤科等 ,辽宁省 
中国医科大学第二附属医院〓盛京医院 ,沈阳市三好街36号 ,110004,024-83956220 ,三甲 ,小儿内科、小儿外科、妇产科、传染科、肝炎治疗 ,辽宁省 
中国医科大学附属第四医院(原沈阳铁路局中心医院) ,沈阳市于洪区崇山东路4号 ,110032,024-62042027 ,三甲 ,放射科、心血管内科、呼吸内科、眼科 ,辽宁省 
辽宁省中医院 ,沈阳市皇姑区北陵大街33号 ,110032,024-86901412〓86909114 ,三甲 ,儿科、骨科、涯血管科、妇产科、血液病科、针灸科、脾胃病、肾内病、糖尿病科、中医内科、中西医结合内科 ,辽宁省 
辽宁省人民医院〓辽宁省红十字医院 ,沈阳市沈河区文艺路33号 ,110016,024-24810196〓24147900(总) ,三甲 ,呼吸内科、消化内科、心血管内科、血液内科、泌尿内科、神经内科、耳喉鼻科、传染科、妇科、针灸科、泌尿外科、骨科等 ,辽宁省 
辽宁省肿瘤医院 ,沈阳市大东区小河沿路44号 ,110042,024-24315516(转)8323951 ,三甲 ,肿瘤内（外）科、乳腺外科、肺癌诊治中心、妇瘤科、肝胆胰外科、骨软外科、泌尿外科 ,辽宁省 
沈阳医学院奉天医院〓沈阳医学院附属中心医院(原沈阳市第八医院) ,沈阳市铁西区南七西路5号 ,110024,024-25704595(总)25769300 ,三甲 ,呼吸内科、手外科、耳喉鼻科等 ,辽宁省 
沈阳医学院沈洲医院〓沈阳市心血管病医院(原沈阳医学院第二附属医院) ,沈阳市和平区北九马路20号 ,110002,024-22835555〓22871185 ,三甲 ,心血管内科 ,辽宁省 
沈阳市第四人民医院 ,沈阳市皇姑区黄河南大街20号 ,110031,024-86861329〓86862514(总) ,三甲 ,呼吸内科、消化内科、心血管内科、泌尿内科、神经内科、普外科、神经外科、骨科、肝胆外科、妇科、眼科、老年科、放射科等 ,辽宁省 
沈阳市第五人民医院〓沈阳市肿瘤医院 ,沈阳市铁西区兴顺街188号 ,110023,024-25403783(总) ,三甲 ,呼吸内科、血液内科、免疫分泌科、肿瘤科、普外科、泌尿外科、骨科、妇科、儿内科、眼科、老年科等 ,辽宁省 
沈阳市儿童医院 ,沈阳市崇山东路74号 ,110032,024-86900157(总)86900347 ,三甲 ,小儿脑瘫康复科、ICU新生儿科 ,辽宁省 
沈阳市红十字会医院 ,沈阳市沈河区中山路389号 ,110013,024-22942012〓22903566 ,三甲 ,儿内科、针灸科、中西医结合科、消化内科、心血管内科、血液内科、骨科、妇科、产科、眼科等 ,辽宁省 
辽阳省金秋医院 ,沈阳市沈河区小南街317号 ,110015,024-24113438(总)24810167 ,三甲 ,神经外科、内分泌内科、呼吸内科、胸外科、妇科、循环内科、泌尿外科、消化内科、肾内科、普外科、耳鼻喉科、眼科等 ,辽宁省 
沈阳二四二医院〓沈阳医学院附属第三医院 ,沈阳市皇姑区乐山路3号 ,110034,024-86598242 ,三甲 ,心血管、呼吸、消化、神经内、肿瘤血液、内分泌、肾内、感染、精神心理卫生中心、普外、神经外、心胸骨外、泌尿外、妇产、儿科、眼科、耳鼻喉、口腔、中医科、预防保健科等。设有ICU、CCU监护室，百级层流净化手术室。 ,辽宁省 
铁岭市中心医院 ,铁岭市银州区岭东7号 ,112000,0410-2824951〓2826278〓2213200 ,三甲 ,消化内科、呼吸内科、循环内科、神经内科、血液内科、肿瘤内科、心胸外科、普外科、骨外科、泌尿外科、妇产科、儿科、眼科、耳鼻喉科、口腔科、皮肤科、针灸科、软伤科等 ,辽宁省 
铁法矿务局总医院 ,铁法市铁法镇44号 ,112700,0410-6835683 ,三甲 ,,辽宁省 
大连大学附属新华医院(原大连大学附属医院) ,大连市万岁街156号 ,116021,0411-84314175〓84305057 ,三甲 ,肛肠病、骨科、手外科、显微外科 ,辽宁省
大连大学附属中山医院(原大连铁路医院) ,大连市中山区解放街6号 ,116001,0411-82831457 ,三甲 ,骨显微外科、神经外科、血管外科、乳腺外科、眼科、小儿弱神、斜视 ,辽宁省 
大连医科大学附属第一医院 ,大连市中山路222号 ,116011,0411-83633415〓83635963 ,三甲 ,外科、普外科、骨外科、医学影像学科、心血管内科、呼吸内科、放射科等 ,辽宁省 
大连医科大学附属第二医院 ,大连市沙河口区中山路467号 ,116027,0411-84671619〓84671291 ,三甲 ,泌尿外科、儿外科、中医内科、皮肤性病科、呼吸内科、肿瘤科、普外科、麻醉科、消化内科、眼科 ,辽宁省 
大连市中心医院 ,大连市学工街42号 ,116003,0411-84412001(总)84411935(院办 ,三甲 ,伽玛刀治疗中心、心脏疾病诊疗中心、泌尿外科、普外科、中医外科、妇产科、心血管内科、神经外科、内分泌科、骨外科、手外科、中西医结合内科、心脏介入、功能神经外科、显微外科等 ,辽宁省 
大连市第二人民医院〓大连市中西医结合医院〓大连市骨科医院 ,大连市西岗区宏济街29号 ,116011,0411-83631360〓83638865 ,三甲 ,消化内科、泌尿外科、肿瘤内科、血液内科、内分泌科、神经内科、耳鼻喉科、心血管内科、胸外科、骨外科、眼科、针灸科、老年病科等 ,辽宁省 
大连市第三人民医院〓大连市肿瘤医院 ,大连市甘井子区千山路40号 ,116033,0411-86507500 ,三甲 ,,辽宁省 
大连市第六人民医院(原大连市传染病医院) ,大连市中山区春海街1号 ,116001,0411-82718511〓82714773 ,三甲 ,各种传染病 ,辽宁省 
大连市中医院 ,大连市中山区解放路321号 ,116013,0411-82681738〓82681574 ,三甲 ,脑病专科 ,辽宁省 
大连市儿童医院 ,大连市西岗区中山路154号 ,116012,0411-83602266〓83682177 ,三甲 ,新生儿科、心胸外科、心血管外科、儿童哮喘、癫痫、先天性心脏病、骨外科、肥胖症、腹痛等 ,辽宁省 
大连市友谊医院〓大连市红十字会医院 ,大连市中山区三八广场8号 ,116001,0411-82718822〓82713281 ,三甲 ,泌尿内（外）科、心血管内科、消化内科、整容科、心胸外科 ,辽宁省 
大连市金州区第一人民医院 ,大连市金州区斯大林路683号 ,116100,0411-87693696〓87692406 ,三甲 ,,辽宁省 
鞍山市中心医院 ,鞍山市铁东区南中华路77号 ,114001,0412-5535948〓5930000 ,三甲 ,循环内科、呼吸内科、泌尿内科、神经内科、血液内科、内分泌科、胸外科、骨外科、妇科、产科、耳鼻喉科、五官科等 ,辽宁省 
鞍山市中医院 ,鞍山市铁东区新营路15号 ,114004,0412-5848531〓5818038 ,三甲 ,糖尿病、乳腺病防治中心、骨伤（病）、血栓病、男性病、脉管炎科、呼吸内科、推拿科、针灸科、肛肠科、口腔科 ,辽宁省 
鞍钢铁东医院 ,鞍山市铁东区健身街3号 ,114002,0412-6724436〓6313773 ,三甲 ,心脏内科、心脏外科、神经内科、骨科、脑外科 ,辽宁省 
抚顺市第二医院 ,抚顺市丹东路东段61号 ,113001,0413-8336574〓6681202(总) ,三甲 ,,辽宁省 
抚顺市中医院 ,抚顺市新抚区站前街9号 ,113008,0413-2626281〓2781044 ,三甲 ,内科、外科、骨科、妇科、儿科、眼科、耳鼻喉科、口腔科、肛肠科、皮肤科、针灸科等 ,辽宁省 
抚顺矿务局总医院 ,抚顺市中央大街24号 ,113008,0413-2533291〓2534143 ,三甲 ,普外科、心胸外科、烧伤外科、口腔科、内科、内分泌内科、消化内科、血液内科、神经内科、肿瘤科、显微外科、妇产科、骨外科、耳鼻喉科、口腔科、眼科、皮肤科等 ,辽宁省 
本溪市中心医院 ,本溪市明山区北光路45号 ,117000,0414-2890511 ,三甲 ,体外循环心脏直视手术、同种异体肾移植术等 ,辽宁省 
本溪钢铁(集团)公司总医院 ,本溪市平山区人民路29号 ,117000,0414-2215043 ,三甲 ,,辽宁省 
本溪市金山医院(原本溪矿务局总医院) ,本溪市明山区水塔路矿院街 ,117000,0414-3881917〓3880813 ,三甲 ,,辽宁省
丹东市第一医院 ,丹东市金汤街7号 ,118000,0415-2819133 ,三甲 ,放射介入科、眼科、神经外科、心内科、血液透析专科 ,辽宁省 
丹东市中心医院(原丹东市第二医院) ,丹东市振兴区人民街70号 ,118002,0415-6163479〓6163044 ,三甲 ,泌尿外科、心血管内科、神经内科、骨科、耳鼻喉科等 ,辽宁省 
丹东市中医院 ,丹东市振兴区九经街95号 ,118000,0415-2122277〓2131489 ,三甲 ,骨伤科、针灸科、中风科等 ,辽宁省 
锦州医学院附属第一医院 ,锦州市古塔区人民街五段二号 ,121001,0416-4168811(总)4168855 ,三甲 ,耳鼻咽喉、医学影像、心血管病、急诊、肿瘤、骨疾病 ,辽宁省 
锦州市中心医院 ,锦州市古塔区上海路二段51号 ,121000,0416-2324582〓2326095 ,三甲 ,耳鼻喉科、心外科、骨科、眼科、普外科、血液科、神经内科、神经外科、心内科等 ,辽宁省 
锦州医学院附属第三医院(原锦州市铁路中心医院) ,锦州市古塔区重庆路2段28号 ,121001,0416-4176277〓2552457 ,三甲 ,,辽宁省 
营口市中心医院 ,营口市站前区新立街新立里36号 ,115002,0417-3550622 ,三甲 ,神经内科、普外科、骨外科、肿瘤科 ,辽宁省 
阜新市中心医院 ,阜新市海州区中华路74号 ,123000,0418-2823347〓2827916 ,三甲 ,血液内科、泌尿内科、消化内科、呼吸内科、循环内科、烧伤科、骨伤科、普外科、泌尿外科、肝胆外科、肛肠科、皮肤科、五官科、耳鼻喉科、针灸科、内窥镜科 ,辽宁省 
阜新矿业(集团)总医院 ,阜新市海州区保健街43号 ,123000,0418-2821820〓2885266 ,三甲 ,循环内科、呼吸内科、老年病科、骨外科、眼科、血液内科、消化内科、神经内科、泌尿内科、耳鼻喉科、口腔科、整形外科等 ,辽宁省 
辽阳市中心医院 ,辽阳市文圣区中华大街二段148号 ,111000,0419-3230221〓3232211 ,三甲 ,烧伤整形外科、骨外科、血液内科、脑外科、呼吸内科、神经外科、肾内科、内分泌内科、普外科、脑外科、妇产科、血液内科、耳鼻喉科、皮肤科、口腔科等 ,辽宁省 
辽阳市石化医院 ,辽阳市宏伟区工农街5号 ,111003,0419-5153303 ,三甲 ,,辽宁省 
朝阳市中心医院 ,朝阳市朝阳大街二段六号 ,122000,0421-2811701 ,三甲 ,泌尿外科、骨外科、普外科、烧伤外科、肿瘤外科、循环内科、神经内科、血液内科、妇产科、针灸科、胰十二指肠切除术、颈动脉体瘤切除术、多焦点人工晶体植入术、心导管检查、食道调搏、心脏起搏器植入术、急性大面积心肌梗塞抢救等 ,辽宁省 
盘锦市第二人民医院 ,盘锦市双台子区红旗大街 ,124010,0427-3833611〓3811490 ,三甲 ,,辽宁省 
辽河油田中心医院 ,盘锦市兴隆台区振兴街 ,124010,0427-7650589 ,三甲 ,循环内科、血液内科、泌尿外科、腹部外科、烧伤整形科等 ,辽宁省 
葫芦岛市中心医院 ,葫芦岛市连山大街15号 ,125001,0429-2138204 ,三甲 ,心脏冠脉造影、PTCA+冠脉内支架置入术、射频消融术、颅内动脉瘤介入治疗及脑血栓动脉介入溶检治疗、胃癌根治术、人工关节置换术、颈椎前后路手术、脑动脉架桥术等。 ,辽宁省 
沈阳军区总医院 ,沈阳市沈河区文化路83号 ,110015,024-23892351(总) ,三甲 ,心血管研究所、神经内外科中心、麻醉中心、心病、冠心病、脑出血、脑肿瘤等 ,辽宁省 
中国人民解放军第二Ｏ二医院 ,沈阳市和平区光荣街5号 ,110003,024-23866428 ,三甲 ,血液内科、肾内科、内分泌内科、骨科、儿科 ,辽宁省 
中国人民解放军第四六三医院 ,沈阳市小河沿路46号 ,110042,024-24833785 ,三甲 ,耳鼻咽喉科、普外科、针灸科、心内科、心胸外科、眼科 ,辽宁省 
中国人民解放军第二一Ｏ医院 ,大连市胜利路80号 ,116000,0411-85841113 ,三甲 ,中医血液病、泌尿外科、微创外科 ,辽宁省 
中国人民解放军第四Ｏ六医院 ,大连市茂林街89号 ,116041,0411-86623406 ,三甲 ,创伤外科、烧伤外科、普外科、高压氧科、整形美容外科 ,辽宁省
吉林大学第一医院 ,长春市阳区新民大街1号 ,130021,0431-5612222 ,三甲 ,内科、外科、妇产科、儿科、传染科、神经内科、神经外科、眼科、耳鼻喉头颈外科、骨科、手外科、皮肤科、精神科、心理医学科、中医科、血液科、普通外科、诊断学、核医学等 ,吉林省 
吉林大学第二医院 ,长春市南关区自强街18号 ,130041,0431-8975634〓8934741 ,三甲 ,呼吸内科、皮肤性病科、眼科、心血管内科、消化内科、脊柱外科等 ,吉林省 
吉林大学第三医院(中日联谊二部) ,长春市仙台大街2号 ,130031,0431-5656921 ,三甲 ,普外科、胸外科、心血管内科、耳鼻咽喉头颈外科、神经外科、消化内科、康复科、病理科、皮肤科、血液内科、骨外科、中医科等 ,吉林省 
吉林大学第四医院(原第一汽车制造厂总医院) ,长春市东风大街2643号 ,130011,0431-5906812〓5903561 ,三甲 ,心内科、肝胆外、消化内科、普外科、核医学科 ,吉林省 
吉林省人民医院 ,长春市工农大街1183号 ,130021,0431-5954953〓5595114 ,三甲 ,消化内科、循环内科、普外科、呼吸内科、妇产科、眼科、肛肠科、内分泌科、心外科、手足外科等 ,吉林省 
长春中医学院附属医院〓吉林省中医院 ,长春市工农大路20号 ,130021,0431-5656164〓5600063 ,三甲 ,内科、外科、妇产科、儿科、骨科、针灸科、肛肠科、眼科、五官科、皮肤科、口腔科、康复气功科、推拿科、泌尿科、疼痛科、急诊科等 ,吉林省 
长春市中心医院 ,长春市人民大街64号 ,130051,0431-8916232(总)8939468 ,三甲 ,血液内科、泌尿内科、神经内科、免疫内分泌科、肿瘤内科、普外科、神经外科、胸心外科、心血管内科、泌尿外科、骨科、整型外科、烧伤科、肝胆外科、消化内科、心脑血管疾病等 ,吉林省 
长春市第三医院 ,长春市南关区五马路129号 ,130042,0431-2956858〓2956088 ,三甲 ,妇产科、麻醉科、中医科、耳鼻喉科、口腔科、病理科、电诊科、放射科等 ,吉林省 
长春市中医院 ,长春市曙光463号 ,130022,0431-8495114〓8495005 ,三甲 ,妇科、心血管内科、口腔科、妇科、儿科、针灸科、肛肠科、骨伤科、肾病专科等 ,吉林省 
长春市儿童医院 ,长春市朝阳区北安路69号 ,130061,0431-2728015(总)2728016 ,三甲 ,哮喘、康复、心理、矮小、肥胖、营养、学能测查训练中心、普外科、心外科、儿内科、心理科、新生儿重症监护、儿童保健、皮肤科、口腔科、五官科等 ,吉林省 
吉林省肿瘤医院 ,长春市朝阳区湖光路32号 ,130012,0431-5872600〓5872628 ,三甲 ,口腔、肿瘤、放射、妇产、腹部外科、胸外科、放疗科、中西医结合科、化疗科等 ,吉林省 
吉林市中心医院 ,吉林市南京街4号 ,132011,0432-2456181〓2452391 ,三甲 ,烧伤科、骨科、耳鼻喉科、消化内科、普外科 ,吉林省 
吉林市第二中心医院(原吉林铁路中心医院) ,吉林市昌邑区中兴街36号 ,132001,0432-2544177〓6121853 ,三甲 ,创伤骨科、心血管内科、结核病科、肿瘤内科 ,吉林省 
吉林市中西医结合医院 ,吉林市船营区长春路9号 ,132012,0432-4843560-3056 ,三甲 ,中风、冠心病、慢性肾功能不全 ,吉林省 
北华大学附属医院 ,吉林市南京街30号 ,132011,0432-2022072 ,三甲 ,普外科、传染病、脑外科、手外科、妇产科 ,吉林省 
吉化集团公司总医院 ,吉林市龙潭区大同路32号 ,132022,0432-3968926〓3037847 ,三甲 ,烧伤整形科、职业病防治、消化内科、泌尿外科、神经外科、伽玛刀科、病毒肝炎科等 ,吉林省 
吉林省吉林化学工业公司职工医院 ,吉林市 ,132001,0432-3038283〓3038897 ,三甲 ,,吉林省 
延边大学医学院附属医院 ,延吉市局子街119号 ,133000,0433-2532435〓2513610 ,三甲 ,普外科、神经外科、核医学科、血液内科 ,吉林省 
吉林省脑科医院〓吉林省神经精神病医院 ,四平市中央西路98号 ,136000,0434-3222547〓3251739 ,三甲 ,精神科、神经内科、中西医结合科 ,吉林省 
辽源市中医院 ,辽源市经康路65号 ,136200,0437-3206101 ,三甲 ,药剂科、中医内科、中医眼科、骨伤科、针按科、消化科、神经内科、糖尿病治疗中心等 ,吉林省
中国人民解放军第二Ｏ八医院 ,长春市绿园区西安大街171号 ,130062,0431-6988116〓6988114 ,三甲 ,呼吸内科、消化内科、循环内科、血液内科 ,吉林省 
中国人民解放军第二二二医院 ,吉林市船营区越山路47号 ,132011,0432-2127345 ,三甲 ,消化内科、心血管肾病内科、神经内科 ,吉林省 
中国人民解放军空军吉林医院〓中国人民解放军第四六五医院 ,吉林市丰满区华山路81号 ,132011,0432-6950114 ,三甲 ,消化内科、肾内科、心血管内科、神经内科 ,吉林省 
哈尔滨医科大学附属第一医院 ,哈尔滨市邮政街23号 ,150001,0451-53643849〓53641824 ,三甲 ,传染科、产科、妇科、眼科、心血管内科、神经内科、普外科、神经外科、心外科、骨科 ,黑龙江省 
哈尔滨医科大学附属第二医院 ,哈尔滨市南岗区学府路246号 ,150086,0451-86662961〓86664369 ,三甲 ,消化内科、循环内科、泌尿内科、内分泌科、呼吸内科、血液内科、神经内科、儿内科、皮肤科、风湿科、老年病科、耳鼻喉科、口腔外科、脑外科 ,黑龙江省 
哈尔滨医科大学附属第三医院〓黑龙江省肿瘤医院 ,哈尔滨市南岗区哈平路150号 ,150040,0451-86677581〓86677582 ,三甲 ,手术治疗、化疗、放射治疗、介入治疗、生物治疗、中西医结合治疗 ,黑龙江省 
哈尔滨医科大学附属第四医院(原哈尔滨铁路局中心医院) ,哈尔滨市颐园街37号 ,150001,0451-53608664〓82576777 ,三甲 ,神经外科、心血管内科、泌尿内科、骨外科、介入治疗、同种异体肾移植、超声乳化治疗白内障等 ,黑龙江省 
黑龙江省中医院〓黑龙江省中医研究院 ,哈尔滨市香坊区三辅街142号 ,150036,0451-55653080(总) ,三甲 ,心血管科、针灸科、脾胃病科、中医肾病科 ,黑龙江省 
黑龙江中医药大学附属第一医院 ,哈尔滨市动力区和平路26号 ,150040,0451-82118412 ,三甲 ,妇科、骨科、血液病科、肾病科、肛肠科、中医外科、针灸科、眼科、介入科、肝胆病科、呼吸科、疼痛科、耳鼻喉科等 ,黑龙江省 
黑龙江中医药大学附属第二医院 ,哈尔滨市南岗区阿什河街122号 ,150001,0451-53656377 ,三甲 ,呼吸内科、消化内科、神经内科、循环内科、推拿科、针灸科、脑病专科等 ,黑龙江省 
黑龙江省医院〓黑龙江省中日友谊医院 ,哈尔滨市中山路82号 ,150036,0451-55662971〓55655061 ,三甲 ,烧伤科、皮肤性病科、消化内科、心血管内科、心血管外科等 ,黑龙江省 
黑龙江省第五医院〓黑龙江省康复医院 ,哈尔滨市太阳岛平原街27号 ,150018,0451-88190840〓88190430 ,三甲 ,脊椎骨病科、神经康复科、辅助诊断科、心血管内科、针灸推拿科、气管炎哮喘病治疗等 ,黑龙江省 
哈尔滨市第一医院 ,哈尔滨市道里区地段街151号 ,150010,0451-84683684〓84614605 ,三甲 ,心内科、泌尿外科、脑外科、心胸外科、骨外科、普外科率、呼吸内科妇产科、眼科、耳鼻喉科、透析科、高压氧治疗科、中医科、针灸理疗科、口腔外科等 ,黑龙江省 
哈尔滨市第三医院〓哈尔滨第二四二医院 ,哈尔滨市平房区卫健街3号 ,150066,0451-86501046〓86501071 ,三甲 ,,黑龙江省 
哈尔滨市第四医院 ,哈尔滨市道外区靖宇16大街 ,150026,0451-88029999 ,三甲 ,消化内科、呼吸内科、循环内科、耳鼻喉科、心血管内科、血液内科、泌尿内科、神经内科免疫内分泌科、肿瘤内科、普外科、妇产科、眼科、口腔科、肝胆外科、胸外科、烧伤科等 ,黑龙江省 
哈尔滨市第五医院 ,哈尔滨市动力区健康路51号 ,150040,0451-82870699〓82108063 ,三甲 ,骨科、烧伤整形科、小儿矫形外科、内窥镜室等 ,黑龙江省 
哈尔滨市肛肠医院〓哈尔滨市中医院 ,哈尔滨市道里区建国街副270号 ,150070,0451-84844172 ,三甲 ,呼吸内科、消化内科、心血管内科、血液内科、普外科、妇科、中医内科、中医外科、骨伤推拿科、中医针灸科、口腔科、眼科、康复理疗科、骨科、老年科等 ,黑龙江省 
哈尔滨市红十字中心医院 ,哈尔滨市道里区新阳路415号 ,150010,0451-84886601〓84605417 ,三甲 ,,黑龙江省 
哈尔滨市儿童医院 ,哈尔滨市友谊路57号 ,150010,0451-84881200〓84632826 ,三甲 ,体重儿、早产儿、新生儿缺血、缺氧性脑病、新生儿呼吸窘迫综合症、各种呼吸衰竭、儿童危重症抢救 ,黑龙江省 
哈尔滨市骨伤医院〓黑龙江省骨伤急救中心 ,哈尔滨南岗区西大直街214号 ,150080,0451-86316889〓86316885 ,三甲 ,骨伤、骨折及骨股头坏死、骨髓炎、骨肿瘤、骨结核等骨伤骨病和脑、胸、腹等各种损伤 ,黑龙江省
哈尔滨市心理卫生中心〓哈尔滨市神经精神医院 ,哈尔滨市太平区卫星路18号 ,150056,0451-57681551〓57682772 ,三甲 ,,黑龙江省 
黑龙江省红十字会医院〓黑龙江省林业总医院 ,哈尔滨市动力区和兴路32号 ,150040,0451-82130414〓82130269 ,三甲 ,,黑龙江省 
齐齐哈尔医学院第一附属医院 ,齐市富拉尔基区向阳大街26号 ,161041,0452-6881794 ,三甲 ,脑科研究所、肺癌治疗中心、核医学诊断治疗中心、粒子刀治疗中心、肛肠病无痛治疗中心、康复中心、前列腺疾病治疗中心、肿癌生物诊断治疗中心、耳鼻喉科、泌尿内科 ,黑龙江省 
齐齐哈尔医学院第二附属医院 ,齐市建华区中华西路39号 ,161006,0452-2711840〓2711912 ,三甲 ,骨科、血液科、普外科 ,黑龙江省 
齐齐哈尔医学院第三附属医院(原齐齐哈尔铁路分局中心医院) ,齐市铁锋区太顺街27号 ,161000,0452-2132822 ,三甲 ,呼吸内科、心血管内科、内分泌科、核医学科、急救中心 ,黑龙江省 
齐齐哈尔市第一医院 ,齐市公园路20号 ,161005,0452-2425981〓2470942 ,三甲 ,心血管内外科、循环内科、骨创治疗中心、急诊科、神经内外科、血液科、眼科 ,黑龙江省 
齐齐哈尔市第二医院〓齐齐哈尔市妇幼保健院 ,齐市建华区中华西路38号 ,161006,0452-2553136〓2551212 ,三甲 ,儿童急救科、新生儿科、小儿血液、肾病科 ,黑龙江省 
齐齐哈尔市中医院 ,齐市铁锋区平安南街23号 ,161000,0452-2123282(总)2125668 ,三甲 ,肛肠、儿科、脑外、针灸 ,黑龙江省 
牡丹江医学院红旗医院 ,牡丹江市爱民区向阳街45号 ,157011,0453-6582800 ,三甲 ,妇科、产科、新生儿科、普儿科、儿外科 ,黑龙江省 
牡丹江市第一人民医院 ,牡丹江市爱民区建卫路4号 ,157011,0453-6526231 ,三甲 ,神经内科、泌尿外科、普外科、老年病科、糖尿病科 ,黑龙江省 
牡丹江市中医院〓牡丹江市中西医结合医院 ,牡丹江市西长安街4号 ,157000,0453-6233514 ,三甲 ,,黑龙江省 
佳木斯大学第一附属医院 ,佳木斯市德祥街348号 ,154002,0454-8228887〓8228919 ,三甲 ,心脑血管外科、传染病烧伤整形、头颈外科 ,黑龙江省 
佳木斯市中心医院 ,佳木斯市中山街256号 ,154002,0454-8221711 ,三甲 ,胸心外科、肿瘤外科、内分泌科、理疗科、幼儿科 ,黑龙江省 
佳木斯市结核医院〓佳木斯胸科医院(原佳木斯市第二人民医院) ,佳木斯市光华路37号 ,154007,0454-8783206〓8787918 ,三甲 ,结核内科、循环内科、胸外科 ,黑龙江省 
佳木斯市中医院 ,佳木斯市前进区中山路北段43号 ,154002,0454-8224375 ,三甲 ,骨伤科、糖尿病、肾病、肛肠疾病、脑血管病 ,黑龙江省 
绥化市第一医院 ,绥化市北二东路43号 ,152053,0455-8212958 ,三甲 ,神经内科、心血管内科、肾内科、呼吸内科 ,黑龙江省 
黑龙江省第三医院〓黑龙江省神经精神病防治院 ,北安市交通路61号 ,164092,0456-6662991 ,三甲 ,肾病内科、血液病科、老年病科、心胸外科 ,黑龙江省 
大庆油田总医院〓大庆市第一医院 ,大庆市建设路 ,163316,0459-5886408〓5814338 ,三甲 ,内分泌内科、胸心外科、皮肤科、职业病科、骨髓移植、关节置换术、冠状动脉搭桥、腹腔镜手术、心脏多瓣膜替换术、心脏介入治疗中心等 ,黑龙江省 
大庆市中医院 ,大庆市友谊路35号 ,163111,0459-5814557〓6313405 ,三甲 ,中西医结合、中医内科、泌尿外科、普外科 ,黑龙江省 
鸡西矿业集团总医院 ,鸡西市和平北大街50号 ,158100,0467-2350247 ,三甲 ,颅脑外科、心血管内科、神经内科、肾内科 ,黑龙江省
虎林市人民医院 ,虎林市中心街34号 ,158400,0467-5846717 ,三甲 ,,黑龙江省 
双鸭山矿业集团总医院 ,双鸭山尖山区新兴大街66号 ,155100,0469-4230446〓4223233 ,三甲 ,消化内科、综合内科、骨病科、泌尿外科、烧伤外科 ,黑龙江省 
中国人民解放军第二一一医院 ,哈尔滨市学府路45号 ,150080,0451-86666491〓57752422 ,三甲 ,骨科、眼科、肝胆外科、消化科 ,黑龙江省 
中国人民解放军第二Ｏ三医院 ,齐齐哈尔建华区建设大街59号 ,161000,0452-2112357〓2112355 ,三甲 ,放射科、心血管内科、内分泌科、心肾内科、普外科、妇产科、骨科 ,黑龙江省 
复旦大学附属中山医院 ,上海市徐汇区枫林路180号 ,200032,021-64037245〓64041990(总) ,三甲 ,心脏内科、心脏外科、肝肿瘤科、普通外科、骨科、血管外科、泌尿外科、呼吸病科、肾内科、影像医学、内镜中心 ,上海市 
复旦大学附属肿瘤医院 ,上海市东安路270号 ,200032,021-64175590(总) ,三甲 ,乳腺外科、胸外科、腹外科、头颈外科、化疗科、放射治疗科、中西医结合科、妇科、病理科 ,上海市 
复旦大学附属妇产科医院 ,上海市方斜路419号 ,200011,021-63455050 ,三甲 ,生殖内分泌疾病、妇科肿瘤、生殖免疫、围绝经期疾病、妇科微创医学、围产医学、生殖免疫、男女不育症等 ,上海市 
复旦大学附属儿科医院 ,上海徐汇区枫林路183号 ,200032,021-54524666(总) ,三甲 ,新生儿科、小儿外科、儿科中医专科、心血管专科、儿保专科、肾脏病专科、传染病专科等 ,上海市 
复旦大学附属眼耳鼻喉科医院 ,上海汾阳路83号 ,200031,021-64377134(总) ,三甲 ,眼科有视网膜脱离、角膜病、角膜移植、白内障、视光学、青光眼、眼眶肿瘤、眼底病、中西医结合；耳鼻喉科有耳和颅底显微外科、头颈肿瘤外科、再造外科、中西医结合等 ,上海市 
复旦大学附属华山医院 ,上海市乌鲁木齐中路12号 ,200040,021-62489999 ,三甲 ,神经内外科、皮肤科、手外科、中西医结合、传染病科、脊柱和关节外科、肾脏病科、泌尿外科、肾移植、胰腺外科、乳房外科、内分泌科、职业病和风湿科、颌面外科、影像医学和核医学、运动医学、心血管科等 ,上海市 
上海中医药大学附属龙华医院 ,上海市平南路725号 ,200032,021-64385700〓64398310 ,三甲 ,胆道专科、风温病科、中医外科、肾病专科、脊柱病专科、肝病专科、神经内科、肿瘤、男性泌尿科 ,上海市 
上海市第一人民医院〓上海市红十字会医院 ,上海市武进路85号 ,200080,021-63240090 ,三甲 ,消化科、眼科、泌尿外科、内分泌科、整形科、心血管外科、麻醉科等 ,上海市 
上海市第六人民医院〓上海交通大学医学院附属第六人民医院 ,上海市徐汇区宜山路600号 ,200233,021-64369181〓64701361 ,三甲 ,耳鼻喉科、内分泌科、骨科、心血管内科、肿瘤放射科、超声诊断科、核医学科、骨质疏松防治等 ,上海市 
上海第二医科大学附属第九人民医院 ,上海市制造局路639号 ,200011,021-63138341 ,三甲 ,整形外科、口腔颌面外科、骨科等 ,上海市 
上海市第十人民医院〓同济大学附属第十人民医院(原上海铁路局中心医院) ,上海市闸北区延长中路301号 ,200072,021-51225467〓66303983 ,三甲 ,眼科、心血管科、骨科、耳鼻喉科、脾胃病、抗衰老 ,上海市 
国际福利会国际和平妇幼保健院 ,上海市徐汇区衡山路910号 ,200030,021-64073421〓64072452 ,三甲 ,产科、新生儿科、妇科、肿瘤科、乳腺科 ,上海市 
上海市第一妇婴保健院 ,上海市长乐路536号 ,200126,021-58838888 ,三甲 ,计划生育、女性不育、围产保健、妇科肿瘤及妇科疑难杂症、更年期保健、乳腺肿瘤、影像诊疗、放射科 ,上海市 
上海市精神卫生中心(总部) ,上海市徐汇宛平南路600号 ,200030,021-64387250(总) ,三甲 ,神经症门诊、儿童门诊、青少年门诊、老年门诊、心理咨询、中医门诊、精神病伴发肺结核(分部)、精神病伴发肝炎(分部)等 ,上海市 
上海伽玛刀医院(民营) ,上海市徐汇区吴中东路518号 ,200233,021-64385336 ,三甲 ,,上海市 
上海市儿童医院〓上海交通大学医学院附属儿童医院 ,上海北京西路1400弄24号 ,200040,021-62474880(总) ,三甲 ,小儿肾脏内科、小儿泌尿外科、小儿心血管科、小儿内分泌专业、小儿骨科、小儿呼吸科、小儿消化科、小儿神经内科、小儿外科、心胸外科等 ,上海市
上海华东医院 ,上海市静安区延安西路221号 ,200040,021-62483180〓62484981 ,三甲 ,老年医学、消化内科、老年性眼病、放射与核医学、口腔专科等 ,上海市 
上海中医药大学附属曙光医院 ,上海市普安路185号 ,200021,021-53821650(总) ,三甲 ,肾病科、糖尿病、神经科、肝病科、中医儿科呼吸系统疾病、肛肠科、脾胃病、骨伤科、中医急诊中心等 ,上海市 
上海第二医科大学附属瑞金医院 ,上海市卢湾区瑞金二路197号 ,200025,021-64370045(总) ,三甲 ,灼伤科、血液科、普外科与消化道外科、眼科与激光中心、骨伤科、内分泌科、心脏科、高血压科、肾脏科、传染病科、泌尿科、帕金森病、消化内科等 ,上海市 
上海第二医科大学附属新华医院 ,上海市杨浦控江路1665号 ,200092,021-65792951(总)65792951 ,三甲 ,消化内科、小儿心胸外科、小儿血液科、小儿心血管内科、小儿外小儿骨科、围产医学、眼科、麻醉科、成人外科、小儿骨科、儿童保健科、成人心脏科、放疗科等 ,上海市 
同济大学附属肺科医院〓上海市职业病医院 ,上海市徐汇区延庆路130号(分部) ,200031,021-64749691 ,三甲 ,胸外科、肺结核、肺部肿瘤、肺炎、呼吸疾病、哮喘、慢支、支扩、结节病等 ,上海市 
上海中医药大学附属岳阳中西医结合医院 ,上海市甘河路110号 ,200437,021-65161782 ,三甲 ,推拿科、针灸科、血液科、妇科、痛风专科、胃食管反流病 ,上海市 
复旦大学附属公共卫生中心(原上海市传染病医院) ,上海市水电路56号 ,200083,021-63062125 ,三甲 ,病毒性肝炎、妊娠肝炎、重症肝炎、活动性肝硬化、伤寒、乙型脑炎、流行性出血热、流行性脑脊髓膜炎、化脓性及结核性脑膜炎、肠道传染病、艾滋病、破伤风、狂犬病、性病、传染性非典型性肺炎等 ,上海市 
上海第二医科大学附属仁济医院(西院) ,上海市黄浦区山东中路145号 ,200001,021-63260930 ,三甲 ,消化内科、心血管内科、普外科、激光医学中心、风湿病科、胸外科、免疫科、神经内外科、泌尿科、妇产科、血液科 ,上海市 
上海第二医科大学附属上海儿童医学中心 ,上海市普东新区东方路1678号 ,200127,021-58732020 ,三甲 ,小儿心血管学科、小儿血管肿瘤、儿童保健学科等 ,上海市 
上海市中医院 ,上海市闸北区芷江中路274号 ,200071,021-56639828〓56634500 ,三甲 ,中西医结合治疗帕氏森金症、小儿厌食症、中医红斑狼疮、中医失眠、中医腰突症 ,上海市 
上海市皮肤病性病防治中心 ,上海市武夷路196号 ,200050,021-62522721 ,三甲 ,,上海市 
上海市精神卫生中心分部 ,上海市沪闵路3210号 ,201108,021-64901737〓64901870 ,三甲 ,精神科、康复科等 ,上海市 
同济大学附属同济医院(原甘泉医院) ,上海市普陀新村路389号 ,200065,021-56051080〓56050502 ,三甲 ,心胸外科、精神医学科、骨科、心内科、小儿血液科等 ,上海市 
上海市皮肤病性病防治中心 ,上海长宁区武夷路196号 ,200050,021-62511127〓62522711 ,三甲 ,小儿皮肤科、性病科、麻风科、皮肤外科、化妆品不良反应门诊、医疗激光美容、职业性皮肤病等 ,上海市 
上海市第二军医大学附属长征医院 ,上海黄浦区凤阳路415号 ,200003,021-63520020〓63610109 ,三甲 ,骨科、神经外科、急救科、泌尿外科、皮肤科、心血管内科、临床实验诊断科、肾内科等 ,上海市 
上海市第二军医大学附属长海医院 ,上海杨浦区长海路174号 ,200433,021-25070451〓25071114 ,三甲 ,消化内科、血液内科、烧伤外科、胸心外科、肝胆外科、创伤外科 ,上海市 
上海第二军医大学附属东方肝胆外科医院 ,上海市长海路225号 ,200438,021-65564166 ,三甲 ,肝胆外科 ,上海市 
中国人民解放军第八十五医院 ,上海华山路1328号 ,200052,021-62528805〓62525736 ,三甲 ,全髋置换、肾移植、血液透析、冠脉造影、射频消融、心脏直视手术、腹腔镜手术、人工晶体置换、新喉再造、体外碎石、介入治疗肿瘤、起搏器安装等 ,上海市 
中国人民解放军第四一一医院 ,上海市东江湾路15号 ,200081,021-53934396〓25061411 ,三甲 ,心内科、骨科、眼科、口腔科、理疗科等 ,上海市 
中国人民解放军第四五五医院 ,上海长宁区淮海西路338号 ,200052,021-62800157 ,三甲 ,消化内科、血液内科、心血管内科、胆道外科、心脏瓣膜置换、人工心脏起博器安装、血液滤过、异体肾移植、人工晶体植入、断肢再植等 ,上海市
江苏省人民医院〓南京医科大学第一附属医院〓江苏省红十字医院 ,南京市广州路300号 ,210029,025-83718836〓83733043 ,三甲 ,专科设置齐全，特色有：心血管科、内分泌科、呼吸科、消化科、肾脏科、血液科、老年医学科、普外科、肝脏外科、骨科、泌尿外科、神经外科、心胸外科、皮肤性病科、眼科、感染科、耳鼻咽喉科、妇产科、急诊医学科、康复科、肿瘤科、临床生殖中心 ,江苏省 
江苏省中医院〓南京中医药大学附属医院〓江苏省红十字中医院 ,南京市汉中路155号 ,210029,025-86617141〓86618555 ,三甲 ,心血管科、神经科、肛肠科、呼吸科、血液科、风湿科、消化科、肿瘤科、普外科、脑外科、泌尿外科、妇科、儿科、骨伤科、针灸科、推拿科、口腔科、皮肤科、急诊科、中医肾病、眼科、耳鼻咽喉科、男科等 ,江苏省 
江苏省肿瘤医院〓南京医科大学附属肿瘤医院 ,南京市百子亭42号 ,210009,025-83283312 ,三甲 ,肺癌科、食道癌科、鼻咽癌科、放射治疗科、胸外科、妇科等 ,江苏省 
南京医科大学附属南京第一医院〓南京市第一医院 ,南京秦淮区长乐路68号 ,210006,025-86624213(总) ,三甲 ,普外科、心胸外科、放射免疫检测中心、麻醉科、肿瘤中心、心内科、放射影像科、急诊中心 ,江苏省 
南京大学医学院附属鼓楼医院〓南京市鼓楼医院〓南京市红十字医院 ,南京市中山路321号 ,210008,025-83304616〓83308844 ,三甲 ,麻醉科、泌尿外科、消化内科、血管科、肝胆外科、脊柱外科、呼吸内科、妇产科、骨科、急诊医学科、免疫科 ,江苏省 
南京市中医院〓南京中医药大学附属第三医院 ,南京市金陵路1号 ,210001,025-86626137(总)86627364 ,三甲 ,肛肠科、心血管科、骨伤科、针灸科、脑血管科、妇科 ,江苏省 
南京市妇幼保健医院 ,南京市白下区莫愁路天妃巷123号 ,210004,025-84469824〓84464033 ,三甲 ,妇科、产科、儿科等 ,江苏省 
南京市儿童医院 ,南京市广州路72号 ,210008,025-83304239〓83301138 ,三甲 ,新生儿内科、小儿心胸外科等 ,江苏省 
南京市胸科医院 ,南京市鼓楼区广州路215号 ,210029,025-83728558 ,三甲 ,胸心外科、结核科、心血管内科、呼吸内科、麻醉科、肺内科等 ,江苏省 
南京医科大学附属脑科医院〓南京脑科医院 ,南京市鼓楼区广州路264号 ,210029,025-83723287〓86632085 ,三甲 ,神经内科、神经外科、鉴室科、立体室科、心理科、康复科、介入放射治疗等 ,江苏省 
南京市钟阜医院〓南京市肿瘤医院 ,南京鼓楼区钟阜路1-1号 ,210003,025-83439755 ,三甲 ,肝炎内科、肝炎外科、肝炎产科、肿瘤内科、放疗科等 ,江苏省 
东南大学附属中大医院(原南京铁道医学院附属医院) ,南京市丁家桥87号 ,210009,025-83272000 ,三甲 ,心血管病、微创外科、急症与危重病医学、介入放射学、神经外科、整形修复科、急症医学科 ,江苏省 
无锡市妇幼保健院 ,无锡市崇安区槐树巷48号 ,214002,0510-2725161〓2725094 ,三甲 ,妇产科、新生儿科 ,江苏省 
江苏大学附属医院〓镇江市江滨医院 ,镇江市解放路438号 ,212001,0511-5029089〓5028381 ,三甲 ,呼吸内科、脑外科、肿瘤科、心血管科、内分泌科 ,江苏省 
苏州大学附属第一医院〓苏州市第一人民医院 ,苏州市十梓街96号 ,215006,0512-65223637(总) ,三甲 ,心血管内科、神经内科、血液科、骨科、产科等 ,江苏省 
苏州大学附属第二医院〓苏州市第六人民医院 ,苏州市三香路181号 ,215004,0512-68280621 ,三甲 ,核医学科、神经外科、骨科、神经内科、心内科、血液科 ,江苏省 
苏州市中医院 ,苏州景德路314号 ,215003,0512-65225929〓65224993 ,三甲 ,骨伤科、针灸科、气功科、肛肠科等 ,江苏省 
南通大学院附属医院 ,南通市西寺路20号 ,226001,0513-5517077 ,三甲 ,血液内科、消化内科、普外科、骨科、检验科、眼科等 ,江苏省 
南通市中医院 ,南通市崇川区建设路41号 ,226001,0513-5512494〓5126053 ,三甲 ,蛇伤、痹症、消化科、脾胃病等 ,江苏省 
扬州大学医学院附属医院 ,扬州市南通西路98号 ,225001,0514-7347693 ,三甲 ,,江苏省
江苏省苏北人民医院〓扬州市红十字中心医院 ,扬州市广陵区南通西路98号 ,225001,0514-7341595〓7937406 ,三甲 ,妇产科、消化科、骨科、小儿外科、血液科、神经科、心血管科等 ,江苏省 
徐州医学院附属医院〓徐州市第二人民医院 ,徐州市淮海西路99号 ,221002,0516-5802292〓5802308 ,三甲 ,麻醉科、心内科、血液科、介入放射科、神经外科等 ,江苏省 
徐州市中医院 ,徐州市中山南路169号 ,221003,0516-3902010〓3828772 ,三甲 ,肛肠科、骨伤、妇科、儿科、眼科、针炙科 ,江苏省 
徐州矿务集团第三医院 ,徐州市贾汪团结街 ,221011,,三甲 ,,江苏省 
苏州大学医学院附属第三医院〓常州市第一人民医院 ,常州市局前街185号 ,213003,0519-6607806〓6621235 ,三甲 ,血液科、心胸外科、泌尿外科、骨科、消化内科、心脏内科、肝胆外科、肿瘤科等 ,江苏省 
常州市中医院 ,常州市和平南路56号 ,213003,0519-8103669 ,三甲 ,风湿科、心脑血管科、骨伤科、儿科 ,江苏省 
溧阳市人民医院 ,溧阳市东大街129号 ,213300,0519-7259155 ,三甲 ,,江苏省 
南京军区南京总医院 ,南京市中山东路305号 ,210002,025-80860211〓80860114 ,三甲 ,全军肾脏病研究所、全军普通外科研究所、全军计划生育优生优育技术中心、全军医学检验中心、国家临床药理基地、军区神区内外科研究所、军区心血管内外研究所、军区麻醉与复苏专科中心、军区医学影像专科中心、军区儿科专科中心、军区骨科专科中心、军区病理中心、军区信息与 ,江苏省 
中国人民解放军第八十一医院 ,南京市白下区太平南路杨公井34号 ,210002,025-86648090〓84542288 ,三甲 ,妇科、烧伤整形科、传染病科、胸心外科、肿瘤实验科、泌尿外科等 ,江苏省 
中国人民解放军第九七医院〓徐州医学院附属淮海医院 ,徐州市铜山路226号 ,221000,0516-3349112 ,三甲 ,烧伤外科、消化内科 ,江苏省 
常州和平医院〓中国人民解放军第102医院 ,常州市和平北路20号 ,213003,0519-8103919(总) ,三甲 ,精神疾病、心理疾病 ,江苏省 
浙江大学医学院附属第一医院〓浙江省第一医院 ,杭州市庆春路261号 ,310003,0571-87236665〓87236618 ,三甲 ,传染病科、肝胆胰外科、血管外科、血液病科、心内科、心胸外科、泌尿外科、消化内科、眼科、内分泌科、肛肠外科、耳鼻咽喉科、口腔科、肾脏病中心 ,浙江省 
浙江大学医学院附属第二医院〓浙江省第二医院 ,杭州市上城区解放路68号 ,313000,0571-87783883〓87022776 ,三甲 ,骨科、肿瘤科、创伤急救科、心脑血管科、普外科、神经外科、内科、眼科、耳鼻喉科、皮肤科、肾内科、口腔科、烧伤科等 ,浙江省 
浙江大学医学院附属儿童医院〓浙江省儿童医院 ,杭州市下城区竹竿巷57号 ,310003,0571-87061007(总)87033296 ,三甲 ,血液内科、肾内科、儿内科、小儿心血管疾病科、耳鼻喉科、口腔科、消化科、中西医结合、麻醉科、五官科、儿外科等 ,浙江省 
浙江大学医学院附属邵逸夫医院 ,杭州市庆春东路3号 ,310016,0571-86090073(总)86044817 ,三甲 ,微创外科、小切口心脏手术、冠状动脉搭桥术、肿瘤综合治疗、特色内镜的诊断和治疗、心脏病及神经系统疾病的介入治疗等 ,浙江省 
浙江省人民医院〓浙江省立医院 ,杭州市上塘路158号 ,310014,0571-85239988(总)87980005 ,三甲 ,心胸外科、放射科、普外科、危重病医学(ICU)、微创外科、神经外科、心内科、眼科、骨科、康复科、急诊科、肿瘤内科(含介入放射)、检验中心 ,浙江省 
浙江省立同德医院〓浙江省精神病医院 ,杭州市古翠路234号 ,310012,0571-88913268〓88853256 ,三甲 ,普外科、胸外科、泌尿科、骨科、心血管内科 ,浙江省 
浙江省中医院〓浙江中医学院附属医院〓浙江省东方医院 ,杭州市邮电路54号 ,310006,0571-87072119〓87068001 ,三甲 ,消化学科、肿瘤、神经内科、乳腺病等 ,浙江省 
浙江医院 ,杭州市西湖区灵隐路12号 ,310013,0571-87987373〓87980175 ,三甲 ,老年病科、消化内科、骨科、心脑血管内科、骨科、呼吸内科、心脏起搏器安装、心急心梗、老年多脏器功能衰竭病人抢救等 ,浙江省 
杭州市第一人民医院 ,杭州市上城区浣沙路261号 ,310006,0571-87065701〓87914773 ,三甲 ,心血管内科、耳鼻喉科、消化内科、神经内科、眼科、呼吸内科、普外科、神经外科、胸外科、泌尿外科、妇产科、儿科、口腔科、皮肤科、中医科、针炙推拿科、康复医学科、肾内科、血液内科、感染科、内分泌科、骨科、肛肠外科、临床心理科、肿瘤科、麻醉科、医学美容科、危重病 ,浙江省
杭州市中医院〓浙江中医学院附属第二医院 ,杭州体育场路453号 ,310006,0571-85827888(总)85157591 ,三甲 ,肛肠科、骨伤科、心血管内科、中医妇科、肾病内科、肿瘤科、针灸科、推拿科、急腹诊外科、泌尿科、耳鼻喉科、儿科等 ,浙江省 
浙江中医学院附属中西医结合医院〓杭州市红十字会医院〓浙江省中西医结合医院 ,下城区环城东路38号 ,310004,0571-85186594〓85186042 ,三甲 ,中西医结合脑血管病、脊柱症、结核病、中医妇科、男性不育专科、过敏性鼻炎、疑难皮肤病等 ,浙江省 
台州学院医学院附属中心医院〓台州市中心医院 ,台州市椒江区经济技术开发区东海大道 ,318000,0576-8526100〓8526088 ,三甲 ,颅脑手术、心脏直视手术、腹腔镜直肠癌切除术、肝癌切除术 ,浙江省 
台州学院医学院附属台州医院〓台州医院 ,临海市西门街150号 ,317000,0576-5112241〓5111463 ,三甲 ,神经外科、肿瘤外科、胸外科、风湿病科、移植外科、微创外科、介入治疗等 ,浙江省 
温州医学院附属第一医院〓浙江省立温州第一医院 ,温州市府学巷2号 ,325000,0577-88863888〓88863375 ,三甲 ,神经内科、神经外科、心血管内科、肾内科、呼吸科、胸心外科、血液科、生殖医学中心、肾肝移植等 ,浙江省 
温州医学院附属第二医院〓温州医学院附属育英儿童医院〓浙江省立育英医院 ,温州市医学院路109号 ,325027,0577-88832693〓88816165 ,三甲 ,小儿麻痹矫治中心、儿科、骨科、眼科、妇产科、中西医结合肛肠科、呼吸内科、消化科、血液科、泌尿内科、免疫内分泌科、肿瘤科、普外科、神经科、针灸科、心理科、传染科等 ,浙江省 
温州市第二人民医院〓温州市肿瘤医院 ,温州市鹿城区康乐坊 ,325000,0577-88070016 ,三甲 ,消化内科、泌尿外科、儿科、肿瘤放疗科、肿瘤放射治疗中心、市急诊医学指导中心、市产前诊断中心、市新生儿救治中心等 ,浙江省 
丽水市中心医院〓温州医学院附属第五医院 ,丽水市灯塔街2号 ,323000,0578-2681001〓2681008 ,三甲 ,心胸外科、普外科、肿瘤外科、心脏原位移植、肾移植、心血管内科、骨科、妇产科 ,浙江省 
金华市中心医院 ,金华市明月街71号 ,321000,0579-2338512〓2318024 ,三甲 ,感染性疾病内科、康复科、CT室、肿瘤外科、血液内科、骨关节外科、肝胆胰外科等 ,浙江省 
浙江中医学院附属第三医院〓金华市中医院 ,金华市双溪西路439号 ,321017,0579-2377083〓3933007 ,三甲 ,眼科、肛肠科、针灸科、中西医结合肾病中心、脑外科、骨伤科、耳鼻喉科 ,浙江省 
中国人民解放军第一一七医院〓杭州空军医院 ,杭州市灵隐路14号 ,310013,0571-87986120(总) ,三甲 ,胸外科、心血管内科、骨科检验质控、普通外科、泌尿外科、消化内科皮肤美容科等 ,浙江省 
安徽省立医院 ,合肥市庐江路17号 ,230001,0551-2283114(总) ,三甲 ,血液科、普外科、麻醉科、心内科、心脏外科、神经外科、检验科、口腔科、妇产科、耳鼻喉科、放疗科、风湿科 ,安徽省 
安徽医科大学第一附属医院 ,合肥市绩溪路218号 ,230022,0551-3636697〓2922114 ,三甲 ,皮肤科、心血管内科、泌尿外科、胸心外科、肿瘤科、烧伤科、传染病科、消化内科、眼科等 ,安徽省 
安徽中医学院第一附属医院〓安徽省中医院 ,合肥市梅山路117号 ,230031,0551-2821852〓2816764〓2821605 ,三甲 ,心内科、肾内科、肝胆病科、妇科、推拿科、神经内科、骨伤科、中医内科等 ,安徽省 
合肥市第一人民医院〓合肥红十字会博恩医院 ,合肥市淮河路390号 ,230061,0551-2652893(总机)2645154(院办 ,三甲 ,血液细胞研究室、骨伤骨病研究室、肝胆外科研究室、脑瘫治疗中心、介入放射诊疗中心、外科、眼科、妇产科、骨科小儿先天性髋关节脱位瞪 ,安徽省 
滁州市第一人民医院 ,滁州市鼓楼忠佑街4号 ,239001,0550-3522000(总机)3523968 ,三甲 ,心血管内科、血管内科、肺科、中医科、儿科 ,安徽省 
蚌埠医学院附属医院〓安徽省肿瘤医院 ,蚌埠市长淮路287号 ,233000,0552-3065724〓3064590(总)30702 ,三甲 ,肿瘤、肺科、心血管外科、骨科、胸心外科、整形外科 ,安徽省 
蚌埠市第三人民医院〓东南大学医学院附属蚌埠市第三医院 ,蚌埠市胜利中路38号 ,233000,0552-2044881(总)2042731 ,三甲 ,神经内科、烧伤整形科、口腔科、骨科等 ,安徽省 
皖南医学院附属医院弋矶山医院 ,芜湖市矶山西路92号 ,241001,0553-5739999〓5738279 ,三甲 ,心内科、普外科、脑科、性医学科 ,安徽省 
淮南矿务局职业病防治院 ,淮南市田家庵区洞大路南 ,232033,0554-7624947〓2681583 ,三甲 ,职业病管理科、物理康复科、物理诊断科等 ,安徽省 
安庆市立医院 ,安庆市人民路178号 ,246003,0556-5513259〓5542633 ,三甲 ,普外科、血液内科、消化内科、心血管内科、骨科、妇科、产科、儿内科、儿外科、耳喉鼻科等 ,安徽省 
阜阳市人民医院(原阜阳地区人民医院) ,阜阳市古楼区鹿祠街63号 ,236000,0558-2516117〓2516001(总) ,三甲 ,妇产科、血液病科、脑外科、普外科、骨科等 ,安徽省 
淮北市人民医院 ,淮北市淮海路66号 ,235000,0561-3055021 ,三甲 ,口腔科、针灸科、肺科、整形美容科、皮肤科等 ,安徽省 
淮北矿业(集团)公司矿工总医院 ,相山区淮海路民生巷2号 ,235000,0561-3023534 ,三甲 ,血液内科、内分泌科、消化内科等 ,安徽省 
铜陵市第一人民医院 ,铜陵市 ,244000,0562-5838099 ,三甲 ,心血管内科、眼病防治研究所、烧伤整形科 ,安徽省 
六安市人民医院 ,六安市皖西西路21号 ,237005,0564-3312771 ,三甲 ,传染病科、呼吸内科、口腔科、皮肤科、儿内科、微创介入性诊断、前列腺电切术、断指(掌)再植术、射频消融术、先天性心脏直视手术、心主动脉扩张术、脊柱肿瘤切除术、肾移植术、胰十二指肠手术、甲状腺癌扩大根治术等 ,安徽省 
池州市人民医院 ,池州市百牙路38号 ,247000,0566-2023416〓2022417 ,三甲 ,心血管内科、口腔科、皮肤科、耳鼻喉科 ,安徽省 
中国人民武装警察部队安徽省总队医院 ,合肥市长丰路78号 ,230041,0551-5598888(总) ,三甲 ,腹腔镜外科、神经外科、骨科 ,安徽省 
福建医科大学附属协和医院 ,福州市新权路29号 ,350001,0591-83357896 ,三甲 ,血液科、内分泌科、普外科、胸心外科、心内科、烧伤科、消化、肿瘤、泌尿等 ,福建省 
福建医科大学附属第一医院 ,福州市台江区茶中路20号 ,350005,0591-83357199(总)83318716 ,三甲 ,心内科、骨科、神经内、外科、耳鼻咽喉科、肝胆普外科、眼科、整形外科等 ,福建省 
福建中医学院附属人民医院〓福建省人民医院 ,福州市八一七中路602号 ,350004,0591-83258135〓83258119 ,三甲 ,肾病科、骨病科、心血管病科、肛肠科、脑血管病、眼耳鼻喉科、蛇伤科 ,福建省 
福建省立医院 ,福州市东街134号 ,350001,0591-87557768-1021 ,三甲 ,消化内科、内分泌科、肿瘤科、泌尿外科、骨科、普外科、耳鼻喉科研究室、老年病、妇产科、小儿科等 ,福建省 
福建省妇幼保健院 ,福州市鼓楼区道山路18号 ,350001,0591-87513206 ,三甲 ,妇产科、新生儿科、儿童保健科、妇女保健科 ,福建省 
福建省肿瘤医院 ,福州市福马路凤板马路顶91号 ,350014,0591-83660063〓83628767 ,三甲 ,肿瘤专科、放射治疗科、妇瘤科、头颈外科、胸外科 ,福建省 
福州中西结合医院(原福州市第二医院) ,福州市仓山区上藤路47号 ,350007,0591-83442142(总)83441199 ,三甲 ,肿瘤科、骨科、康复科、神经外科、神经内科 ,福建省 
福州市第四医院〓福州市神经精神病防治院 ,福州市福清路塘池街52号 ,350008,0591-83516217 ,三甲 ,精神科、心理科 ,福建省 
福州市妇幼保健院 ,福州市鼓楼区鼓东路23号 ,350001,0591-87553497〓87522109 ,三甲 ,新生儿科、妇女保健科、计划生育科、儿童保健科等 ,福建省 
福州肺科医院〓福州市结核病防治院 ,福州市仓山区福湾路2号 ,350008,0591-83442756 ,三甲 ,肺科、结核病科、哮喘病等 ,福建省 
福州市传染病医院 ,福州市古楼区西洪路312号 ,350025,0591-83713358〓83702840 ,三甲 ,传染病专科、肝病科 ,福建省 
厦门眼科中心医院 ,厦门市厦禾路238号 ,361001,0592-2109897 ,三甲 ,白内障、青光眼、显微玻璃体切割、角膜移植等 ,福建省
厦门中山医院 ,厦门市开元区湖滨南路209号 ,361004,0592-2292210 ,三甲 ,神经外科、骨科、肝胆外科、消化内科 ,福建省 
福建医科大学附属第二医院 ,泉州市中山北路34号 ,362000,0595-22791140 ,三甲 ,自身免疫风湿病专科、骨科、内分泌科、心血管科、呼吸内科、胸外科、普通外科、泌尿外科、消化道肿瘤外科、肝胆外科、耳鼻喉科、妇产科、眼科 ,福建省 
南京军区福州总医院(原解放军九三医院) ,福州市西二环北路156号 ,354200,0591-83727698(总) ,三甲 ,泌尿外科、肝胆外科、脊柱外科、心脏外科、颅脑外科、创伤外科、微创外科、肾脏内科、老年病内科、精神内科、心血管病、器官移植、中医科、肿瘤科 ,福建省 
中国人民解放军第一七五医院 ,漳州市章响路 ,363000,0596-2944290 ,三甲 ,外科、创伤外科、显微外科、烧伤科、脊柱外科等 ,福建省 
江西医学院第一附属医院 ,南昌市永外正街17号 ,330006,0791-8692711 ,三甲 ,内分泌科、心血管内科、普外科、烧伤科、消化内科、泌外科、神经外科等 ,江西省 
江西医学院第二附属医院 ,南昌市民德路1号 ,330006,0791-6227231〓6262258〓6300815 ,三甲 ,心血管内科、呼吸内科、血液内科、心血管外科、骨科、肝胆外科 ,江西省 
江西医学院第三附属医院〓南昌市第一医院 ,南昌市象山北路128号 ,330008,0791-6783220〓6782945 ,三甲 ,心胸外科、神经内科、心内科、骨科 ,江西省 
江西医学院附属口腔医院 ,南昌市东湖区福州路49号 ,330006,0791-6361040 ,三甲 ,口腔内科、口腔修复科、口腔正畸科、种植牙中心等 ,江西省 
江西中医学院附属医院〓江西省中医院 ,南昌市八一大道445号 ,330006,0791-6363357〓6363359 ,三甲 ,呼吸内科、肾内科、骨伤科、中西结合急诊科、针灸科、肛肠科等 ,江西省 
江西省人民医院 ,南昌市东湖区爱国路92号 ,330006,0791-6897579〓6895515 ,三甲 ,神经内科、心胸外科、心血管内科、呼吸科、血液科、眼科、临床检验中心、肾内科 ,江西省 
江西省肿瘤医院〓江西省第二人民医院 ,南昌市北京东路519号 ,330029,0791-8331590〓8313812 ,三甲 ,胸部肿瘤外科、肿瘤放射治疗学科、肿瘤内科、肿瘤外科、中西医结合科等 ,江西省 
江西省儿童医院 ,南昌市阳明路122号 ,330006,0791-6826970〓6803758 ,三甲 ,普外科、重症监护仪、新生儿科 ,江西省 
江西省胸科医院〓江西省结核病防治所〓江西老年病医院 ,南昌市叠山路346号 ,330006,0791-6784107〓6784877 ,三甲 ,胸外科、呼吸内科、肿瘤科、结核内科、哮喘科 ,江西省 
南昌市中西医结合医院〓南昌市第二医院〓江西中医学院附属中西医结合医院 ,南昌市八一大道90号(老福山) ,330003,0791-6262584〓6275124 ,三甲 ,妇产科、消化内科、普外科、心血管内科、呼吸内科等 ,江西省 
玉山县中医院 ,玉山县三清大道 ,334700,0793-2553784 ,三甲 ,骨伤科 ,江西省 
赣南医学院附属医院 ,赣州市青年路49号 ,341000,0797-8266006〓8266059 ,三甲 ,皮肤科、眼科、泌尿外科、普外科、胸心外科 ,江西省 
赣州市人民医院(原赣州地区人民医院) ,赣州市红旗大道17号 ,341000,0797-8112320 ,三甲 ,心血管内管、神经内科、呼吸内科、普外科、泌尿外科 ,江西省 
中国人民解放军第九四医院 ,南昌市井冈山大道890号 ,330002,0791-6402568 ,三甲 ,急诊科、心血管内科、消化内科、神经内科、肿瘤科、心胸外科、显微外科、骨科、整形外科、神经外科、肛肠外科、妇产科等 ,江西省 
山东大学齐鲁医院 ,济南市历下区文化西路107号 ,250012,0531-86921941〓86927544 ,三甲 ,妇产科、心血管内科、血液病科、泌尿内科、普外科等 ,山东省 
山东中医药大学附属医院〓山东省中医院 ,济南市文化西路42号 ,250011,0531-82950414(总机) ,三甲 ,周围血管科、肛肠科、骨科、脑血管病、内分泌科、血液肿瘤病、肝病、类风湿病、风湿免疫病、乳腺病 ,山东省
山东中医药大学第二附属医院(原济南铁路中心医院) ,济南市中区经八路1号 ,250001,0531-82436647〓2436327 ,三甲 ,心血管内科、神经内科、中医肾病等 ,山东省 
山东省立医院 ,济南市经五纬七路324号 ,250021,0531-87938911〓87937741 ,三甲 ,消化内科、呼吸内科、心血管研究中心、泌尿外科、儿科、妇产科、儿外科、内分泌科、烧伤整形科 ,山东省 
山东省千佛山医院 ,济南历下区经十路66号 ,250014,0531-82968900〓82963647 ,三甲 ,普外科、心血管内科、病理科 ,山东省 
山东省肿瘤医院〓山东省肿瘤防治研究院 ,济南市槐荫区济兖路440号 ,250117,0531-87984361〓87984777 ,三甲 ,肿瘤内科、肿瘤外科、肿瘤放疗科、妇瘤科、立体定向治疗科、恶性肿瘤、放射治疗科等 ,山东省 
济南市中心医院〓山东大学临床医院 ,济南市历下区解放路105号 ,250013,0531-85695114 ,三甲 ,烧伤整形外科、神经外科、显微外科、心内科、眼科、内分泌科、心外科、耳鼻喉科、肾病治疗中心、生物治疗中心 ,山东省 
济南市第四人民医院〓泰山医学院第二附属医院 ,天桥区师范路50号 ,250031,0531-85951785〓85800741 ,三甲 ,脑血管内科、心胸外科、骨外科、肿瘤科 ,山东省 
济南市中医院 ,济南市市中区共青团路76号 ,250012,0531-86921476〓6020791 ,三甲 ,心脑血管病、周围血管病、针灸科、推拿科、中西医结合科等 ,山东省 
济南市妇幼保健院 ,济南市建国小经三路2号 ,250001,0531-82060983〓2061761 ,三甲 ,产科、妇科、儿科、遗传科、生殖健康科、社区服务科、妇女保健科、围产保健、新生儿疾病筛查中心、更年期保健中心等 ,山东省 
山东大学齐鲁儿童医院〓济南市儿童医院 ,济南市槐荫区经十路430号 ,250022,0531-87964257〓7964990 ,三甲 ,儿内科、儿外科、儿童保健科、脑瘫科等 ,山东省 
济南施尔明眼科医院 ,济南市市中区经八路2号 ,250001,0531-82466188〓82437757 ,三甲 ,眼底病科、眼外伤科、美容整形科、白内障、青光眼、脉络膜病变 ,山东省 
菏泽市中医院(民营) ,菏泽市丹阳路128号 ,274035,0530-5085201 ,三甲 ,中风科、眼科、针推科 ,山东省 
青岛大学医学院附属医院 ,青岛市江苏路16号 ,266003,0532-82911311〓82911818 ,三甲 ,,山东省 
青岛大学医学院第二附属医院〓青岛纺织医院 ,青岛市四流南路127号 ,266042,0532-84855192〓84863506 ,三甲 ,呼吸内科、乳腺外科、脑外科、烧伤整形科、心胸外科 ,山东省 
山东省青岛疗养院〓山东康复中心 ,青岛市市南区正阳关路16号 ,266071,0532-83865100〓83871359 ,三甲 ,中医科、按摩科、针灸科、呼吸内科、心血管内科 ,山东省 
青岛市立医院 ,青岛市胶州路1号 ,266011,0532-82789328 ,三甲 ,儿科、眼科、口腔科、耳鼻喉科、皮肤科、内、外科、神经内科、骨科、肝胆外科等 ,山东省 
青岛市人民医院〓青岛市红十字会医院 ,青岛市安徽路21号 ,266001,0532-82826722〓82852108 ,三甲 ,眼科、中医科、老年病科 ,山东省 
青岛市海慈医疗集团(原青岛市第二人民医院) ,青岛市人民路4号 ,266033,0532-83777232〓83742214 ,三甲 ,中医心血管内科、中医糖尿病、中医妇科、中医呼吸内科、肾病内科、消化内科、骨科、眼科等 ,山东省 
青岛市第五人民医院〓青岛市中西医结合医院 ,青岛市市南区嘉祥路3号 ,266002,0532-82864408〓82616960 ,三甲 ,胆石症专科、血管性痴呆专科 ,山东省 
青岛市妇女儿童医疗保健中心 ,青岛市铁山路10号 ,266011,0532-82857557〓82824382 ,三甲 ,新生儿科、脑瘫神经康复科、生殖医学中心、中医科 ,山东省 
淄博市中心医院 ,淄博市张店区共青团西路54号 ,255036,0533-2302173〓2302615 ,三甲 ,眼科、心血管内科、心胸外科 ,山东省
淄博市妇幼保健院(原淄博市第三人民医院) ,淄博市张店区杏园东路11号 ,255029,0533-2157698〓2157699 ,三甲 ,,山东省 
山东中医药大学第四附属医院〓淄博市中医院 ,淄博市周村区新建中路75号 ,255300,0533-6433068 ,三甲 ,心内科、妇科、 ,山东省 
山东侨联医院〓淄博市耳鼻咽喉医院 ,淄博市张店区柳泉路55号 ,255031,0533-3180337〓3179175 ,三甲 ,耳鼻喉科 ,山东省 
德州市结核病防治所〓德州市肿瘤医院 ,德州市铁西南路健康路17号 ,253004,0534-2416110〓2416178 ,三甲 ,肿瘤内科、肺内科、放疗科、胸外科 ,山东省 
烟台毓璜顶医院〓青岛大学医学院附属烟台毓瑛顶医院 ,烟台市毓璜顶东路20号 ,264000,0535-6691999 ,三甲 ,耳鼻喉科、中西医结合、介入放射科、心血管病、神经外科、泌尿外科、妇产科、眼科、血液科、神经内科等 ,山东省 
山东中医药大学附属烟台中医院〓烟台市中医院〓烟台市中西医结合医院 ,烟台市幸福路39号 ,264002,0535-6870296〓6870398 ,三甲 ,中风科、糖尿病、不孕症 ,山东省 
潍坊市人民医院 ,潍坊市奎文区广文街151号 ,261041,0536-8234981(总机)8192009 ,三甲 ,耳鼻喉科、神经外科、肝胆外科、泌尿外科、内分泌科 ,山东省 
潍坊市中医院 ,潍坊市奎文区潍州路666号 ,261041,0536-8190000 ,三甲 ,脑病科、肾科、中风科、骨伤科 ,山东省 
济宁市第一人民医院 ,济宁市市中区健康路 ,272111,0537-2253431〓2253816 ,三甲 ,神经外科、心内科、小儿外科、骨外科、眼科等 ,山东省 
济宁医学院第二附属医院〓山东省安康医院〓济宁市精神病医院 ,济宁市任城区北戴庄 ,272100,0537-3165679 ,三甲 ,精神科、神经科、中西医结合精神病科、神经症科 ,山东省 
汶上县人民医院 ,汶上县德惠路2号 ,272501,0537-7212548 ,三甲 ,,山东省 
泰安市中心医院 ,泰安市龙潭路29号 ,271000,0538-8224161〓8223226 ,三甲 ,神经外科、内分泌科、心血管内科、眼科、血液内科、妇产科、普外科、泌尿外科等 ,山东省 
临沂市人民医院 ,临沂市解放路东段27号 ,276003,0539-8226999〓8211211 ,三甲 ,骨科、整形烧伤科、神经内外科、心血管内科、心外科、耳鼻喉科 ,山东省 
临沂市中医院 ,临沂市解放路120号 ,276002,0539-8209136〓8215093 ,三甲 ,,山东省 
滨州医学院附属医院 ,滨州市黄河二路661号 ,256603,0543-3257792〓3256506 ,三甲 ,消化内科、心血管内科、血液内科、神经内科、心脏介入治疗、纤维胆道镜取石术、口腔科、泌尿外科、骨科、肝胆外科等 ,山东省 
胜利油田中心医院 ,东营市东营区济南路280号 ,257034,0546-8552282〓8770268 ,三甲 ,心血管内科、胸心外科、骨外科、神经内外科、儿科 ,山东省 
威海口腔医院 ,威海市青岛北路29号 ,264200,0631-5230251〓5230251 ,三甲 ,口腔内科、口腔修复科等 ,山东省 
枣庄市立医院〓济宁医学院附属枣庄市立医院 ,枣庄市龙头路47号 ,277102,0632-3318934〓3312409 ,三甲 ,消化内科、呼吸内科、内分泌科、神经内科 ,山东省 
枣庄市立中医院 ,枣庄市市中区公胜街24号 ,277101,0632-3068008 ,三甲 ,普外科、骨伤科、妇产科、皮肤科、推拿科、痔疮科 ,山东省 
聊城市中医院 ,聊城市文化路1号 ,252000,0635-8343972〓8342104 ,三甲 ,眼病防治科、骨伤科、肿瘤 ,山东省
济南军区总医院 ,山东省济南市师范路25号 ,250031,0531-82166110 ,三甲 ,神经内科、骨创科、泌尿外科、心内科、消化科、心外科、肾内科、血液病 ,山东省 
中国人民解放军第八十八医院 ,泰安市 ,271000,0538-6213002(总机)8223002 ,三甲 ,全军骨科中心、全军计划生育优生优育技术中心、传染病、心血管内科、口腔颌面外科、脑立体定向、疼痛、药济、中心血站 ,山东省 
中国人民解放军第八十九医院 ,潍坊市北宫西街256号 ,261021,0536-8358989(总机) ,三甲 ,创伤骨科、眼科 ,山东省 
中国人民解放军第一Ｏ七中心医院 ,山东烟台市只楚南路7号 ,264002,0535-6522107(总) ,三甲 ,骨科、血管外科、肝胆肾外科、肿瘤 ,山东省 
中国人民解放军海军第四Ｏ一医院 ,青岛市闽江路22号 ,266071,0532-83971100 ,三甲 ,手外科、脊柱外科、急救医学、胸外科、航海专科、胸外科 ,山东省 
河南中医学院第一附属医院 ,郑州市人民路19号 ,450000,0371-66228901〓66220903 ,三甲 ,脑血管内科、心血管科、泌尿内科、周围血管科、肛肠科、儿科、消化内科等 ,河南省 
河南省中医院〓河南中医学院第二附属医院 ,郑州市东风路6号 ,450002,0371-63932562〓63733177 ,三甲 ,心血管内科、肿瘤科、骨伤科、妇科、肝病科、脑血管病、帕金森病、乳腺病 ,河南省 
郑州大学第一附属医院 ,郑州市建设东路1号 ,450052,0371-66964992〓66913023 ,三甲 ,眼科、心血管疾病、肿瘤科、耳鼻喉科、血液病、外科 ,河南省 
河南省人民医院 ,郑州市纬五路7号 ,450003,0371-65580011〓65964376 ,三甲 ,心胸外科、心血管内科、眼科、消化内科、肝胆外科、老年病、眼科等 ,河南省 
河南省肿瘤医院〓河南省肿瘤研究所 ,郑州市东明路127号 ,450003,0371-65994968〓65961505 ,三甲 ,肿瘤生物治疗研究中心、淋巴瘤会诊中心、胸外科、肿瘤介入治疗中心、放疗中心、胸外科、普外科、乳腺科、神经外科、妇瘤科等 ,河南省 
郑州市中心医院(原郑州市第四人民医院) ,郑州市桐柏路195号 ,450007,0371-67620956〓67629136 ,三甲 ,消化内科、内分泌科 ,河南省 
河南中医学院第六附属医院〓郑州市中医院〓郑州市红十字医院 ,郑州文化宫路65号 ,450007,0371-67447674〓67447426 ,三甲 ,心血管内科、中风科 ,河南省 
郑州市骨科医院 ,郑州市陇海中路58号 ,450052,0371-67447873 ,三甲 ,脊柱二科、手外科、小儿骨科、关节病治疗中心、骨肿瘤科等 ,河南省 
郑州铁路局中心医院 ,郑州市康复前街3号 ,450052,0371-66965783〓68322457 ,三甲 ,骨外科、泌尿外科、病理科、心内科、神经外科、心胸外科等 ,河南省 
安阳地区人民医院 ,安阳市灯塔路41号 ,455000,0372-5923321〓5958570 ,三甲 ,胸外科、妇产科、血液病科等 ,河南省 
安阳市人民医院〓安阳市中心医院 ,安阳市解放路中段18号 ,455000,0372-5905666〓5927617 ,三甲 ,中医科、中西医结合科、五官科、皮肤科、传染科、病理科、儿科、妇科等 ,河南省 
安阳市中医院 ,安阳市解放路中段 ,455000,0372-5117900 ,三甲 ,脑血管科、消化内科、心血管科、儿科、中风偏瘫科等 ,河南省 
安阳市肿瘤医院 ,安阳市洹滨北路2号 ,455000,0372-2923319(总) ,三甲 ,放疗、病理、放射科 ,河南省 
河南省精神病医院〓新乡医学院第二附属医院 ,新乡市建设东路 ,453002,0373-3373995〓3373988 ,三甲 ,精神科、神经科 ,河南省 
新乡市中心医院(原河南省第三人民医院) ,新乡市南干道16号 ,453000,0373-2048900〓2022300 ,三甲 ,心血管科、神经内外科、肿瘤科等 ,河南省
新乡医学院第一附属医院〓河南省结核病医院 ,卫辉市健康路 ,453100,0373-4402229〓4402251 ,三甲 ,小儿内科、心血管内科、小儿外科、普外科、神经外科、感染疾病科、结核科等 ,河南省 
许昌市中心医院 ,许昌市健安路30号 ,461000,0374-3353059〓3353012 ,三甲 ,妇产科、肿瘤科 ,河南省 
平顶山市第一人民医院 ,平顶山市卫东区优越路117号 ,467021,0375-3836054〓3834282 ,三甲 ,内分泌科、心血管科、血液科、肝胆外科 ,河南省 
平顶山煤业(集团)公司总医院 ,平顶山市矿工中路南1号院 ,467000,0375-2729001〓2729068 ,三甲 ,烧伤整形科、创伤急救、腔镜治疗中心、肿瘤科 ,河南省 
南阳市中心医院 ,南阳市工农路312号 ,473000,0377-63200026〓63200001 ,三甲 ,神经内科、脑外科、妇产科、肿瘤科、心血管内科、肝胆外科、泌尿外科、耳鼻喉外科、呼吸消化科、新生儿科等 ,河南省 
河南大学淮河医院 ,开封市包公湖北路8号 ,475000,0378-3155122〓3155016 ,三甲 ,心胸外科、心内科 ,河南省 
开封市第一人民医院 ,开封市河道街85号 ,475000,0378-5671288〓5671258 ,三甲 ,烧伤科、眼科、神经科、心血管科 ,河南省 
河南科技大学第一附属医院 ,洛阳市涧西区景华路24号 ,471003,0379-64901440〓64923362 ,三甲 ,肿瘤、神经外科、显微外科、心内科 ,河南省 
洛阳市中心医院(原洛阳市第二人民医院) ,洛阳市中州中路288号 ,471000,0379-63892133〓63892008 ,三甲 ,中俄洛阳心血管病治疗中心、心血管外科、心血管内科、胸外科、骨科、神经外科、神经内科、眼科等 ,河南省 
洛阳正骨医院 ,洛阳市启明南路1号 ,471013,0379-63546511〓63546810 ,三甲 ,筋伤、骨病矫形、颈肩腰腿痛、脊柱外科等 ,河南省 
焦作市人民医院 ,焦作市解放中路267号 ,454002,0391-3933225(总机)3934173 ,三甲 ,心血管内科、心外科、神经内科、泌尿外科、骨科、肿瘤科 ,河南省 
焦作市第二人民医院 ,焦作市民主南路17号 ,454001,0391-2625821〓2631928 ,三甲 ,神经外科、胸外科、呼吸内科、消化内科、肿瘤内科、普外科、骨科等 ,河南省 
濮阳市人民医院 ,濮阳市胜利西路189号 ,457000,0393-4402115〓4414938 ,三甲 ,心胸外科、血液科 ,河南省 
中原油田总医院 ,濮阳市大庆路341号 ,457001,0393-4824289〓4821228〓4821962 ,三甲 ,骨科、心内科、儿科、普外科等 ,河南省 
周口市中心医院(原周口地区人民医院) ,周口市人民路东26号 ,466000,0394-8222893 ,三甲 ,,河南省 
漯河市第一人民医院〓漯河市中心医院 ,漯河市人民东路54号 ,462000,0395-2681883 ,三甲 ,骨外科、胸心外科、神经外科、关节脊柱外科、神经显微外科等 ,河南省 
武警河南总队医院 ,郑州市康复路中街1号 ,450052,0371-66964364 ,三甲 ,眼科、普外科、肿瘤科、神经外科 ,河南省 
中国人民解放军一五三中心医院 ,郑州市中原区须水镇 ,450042,0371-67811800〓63510520 ,三甲 ,神经内科、肝胆外科、呼吸内科、中医科等 ,河南省 
中国人民解放军第四六Ｏ医院(原空军郑州医院) ,郑州市互助路10号 ,450007,0371-67944345 ,三甲 ,泌尿外科、心胸外科、妇产科、感染科 ,河南省 
中国人民解放军一五Ｏ中心医院 ,洛阳市 ,471031,0379-4181787 ,三甲 ,神经内科、呼吸内科、心血管内科、消化内科等 ,河南省
中国人民解放军第一五二医院 ,平顶山市建设路中段 ,467000,0375-3933355(总)3843005 ,三甲 ,心血管疾病、眼科、心胸及神经外科、理疗科 ,河南省 
中国人民解放军第一五九医院 ,驻马店风光路南段 ,463000,0396-2967141〓2966147 ,三甲 ,烧伤整形科、创伤外科、泌尿外科、肝胆外科、胸外科、口腔科 ,河南省 
中国人民解放军一六Ｏ医院 ,焦作市工业路东段 ,454000,0391-3934160〓3597807 ,三甲 ,,河南省 
中国人民解放军第三七一医院 ,新乡市文化路64号 ,453000,0373-5081371 ,三甲 ,心肾内科、心脏外科、骨科、眼科、肿瘤康复中心、理疗中心、碎石中心 ,河南省 
武汉大学人民医院〓湖北省人民医院 ,湖北省武汉市武昌解放路238号 ,430060,027-88041911〓88066234 ,三甲 ,心血管内科、消化内科、呼吸内科、肾病内科、胸心外科、泌尿外科、骨外科、神经外科、整形外科、生殖医学中心、耳鼻咽喉-头颈外科、眼科、妇产科、精神科、儿科等为国家、湖北省和医院重点学科。 ,湖北省 
武汉大学中南医院 ,武汉市武昌东湖路169号 ,430071,027-87312993〓87330795 ,三甲 ,肿瘤科、显微外科、泌尿外科男科学、消化内科、检验科、显微外科、普通外科、麻醉科、神经内外科、骨科、内科心血管、内分泌科、呼吸科、感染科、放射科等 ,湖北省 
武汉大学口腔医院〓湖北省口腔医院 ,武汉洪山区珞瑜路237号 ,430070,027-87648289〓87873260 ,三甲 ,口腔科、放射科、口腔正畸科、口腔预防科、牙体牙髓科、口腔颌面外科 ,湖北省 
武汉大学中山医院(原武汉军工总医院) ,武汉市中山大道26号 ,430033,027-83786696〓83745985 ,三甲 ,口腔科、新生儿科、骨科、眼科、心血管科等 ,湖北省 
湖北中医药大学附属医院〓湖北省中医院 ,武汉市花园山4号 ,430061,027-88929147 ,三甲 ,肝病科、针灸科、心血管病、中医内科、口腔科、呼吸内科、骨科、肾病、小儿肾病、急诊科等 ,湖北省 
华中科技大学同济医学院附属协和医院 ,武汉市解放大道1277号 ,430022,027-85726114(总) ,三甲 ,心血管内科、普通外科、呼吸内科、妇产科、血液病、医学影像科、耳鼻咽喉科、骨科、心血管外科、泌尿外科、消化内科、脑外科、传染病 ,湖北省 
华中科技大学同济医学院附属同济医院 ,武汉市汉口区解放大道1095号 ,430030,027-83662619 ,三甲 ,腹部外科、器官移植、呼吸内科、康复医学科等 ,湖北省 
湖北省妇女儿童医院〓湖北省妇幼保健院 ,武汉市武昌街道口武珞路745号 ,430070,027-87884730〓87876452 ,三甲 ,妇科、产科、新生儿科、小儿脑科、乳腺专科 ,湖北省 
湖北省肿瘤医院 ,武汉市卓刀泉南路16号 ,430079,027-87670084〓87399762 ,三甲 ,放射治疗科、肿瘤内科、胸体外科、乳腺科 ,湖北省 
武汉市中西医结合医院〓武汉市第一医院 ,武汉市中山大道375号 ,430022,027-85855908(总)85832563 ,三甲 ,皮肤科、肾病科、眼科、肿瘤科、针灸科、泌尿外科、眼科、激光美容等 ,湖北省 
武汉市中心医院〓华中科技大学同济医学院附属仁济医院〓武汉市第二医院 ,武汉江岸区胜利街26号 ,430014,027-82811083〓82811080(总) ,三甲 ,心血管科、消化内科、呼吸内科、心血液内分泌科 ,湖北省 
武汉大学同仁医院〓武汉市第三医院 ,武汉市武昌彭刘杨路241号 ,430060,027-88843447 ,三甲 ,烧伤科、整形科、小儿眼科、肾内科 ,湖北省 
武汉市第四医院〓华中科技大学同济医学院附属普爱医院〓武汉市骨科医院 ,武汉市汉正街473号 ,430033,027-83750309〓83786736〓837825 ,三甲 ,内科、外科、骨科、妇儿科、肿瘤科 ,湖北省 
武汉市中医院 ,武汉汉口黎黄陂路49号 ,430014,027-82835626〓82831403(总) ,三甲 ,肝胆内科、心血管内科、中风专科、小儿咳喘科、中医内科、中医儿科、皮肤科等 ,湖北省 
武汉市妇女儿童医疗保健中心〓武汉市妇幼保健院〓武汉市儿童医院 ,武汉市汉口香港路100号 ,430016,027-82433364〓82433495 ,三甲 ,,湖北省 
华中科技大学同济医学院附属精神病医院(原武汉市精神病医院) ,武汉市游艺路70号 ,430022,027-85834502 ,三甲 ,精神病 ,湖北省
武汉市传染病医院〓武汉市肝病医院 ,武汉市江汉区北路18号 ,430022,027-85795746〓85795114〓857785 ,三甲 ,肝炎科、检验科、药剂科、病毒室等 ,湖北省 
武汉科技大学附属医院(原武汉铁路中心医院) ,武汉市武昌区涂家岭9号 ,430064,027-51126417〓87896186 ,三甲 ,眼科、耳鼻喉科、肝胆外科、呼吸内科、泌尿外科、肿瘤科、介入放射科、整形美容科等 ,湖北省 
武钢职工总医院 ,武汉市青山区冶金大道29号 ,430080,027-86803612〓86324851 ,三甲 ,脑外科、烧伤专科、肝胆专科、心血管专科、糖尿病、神经外科 ,湖北省 
襄樊市中心医院 ,襄樊市襄城区荆州街39号 ,441021,0710-3522567〓3512850 ,三甲 ,眼科、检验科、泌尿外科、心血管内科、心胸外科、肿瘤科、妇产科、耳鼻喉科、神经内外科 ,湖北省 
襄樊市第一人民医院〓襄樊市红十字医院 ,襄樊市解放路75号 ,441000,0710-3420189〓3420018 ,三甲 ,骨外科、手外科、妇科、产科、心内科、耳鼻喉科、微创介入科 ,湖北省 
襄樊市中医院 ,襄樊市长征路85号 ,441000,0710-3440874〓3442883 ,三甲 ,脊柱病科、骨伤科、肛肠科、脑病科、肝病科、糖尿病科 ,湖北省 
鄂州市中心医院 ,鄂州市文星路9号 ,436000,0711-3222091 ,三甲 ,胸外科、普外科、皮肤科、心血管科、消化科、骨科 ,湖北省 
鄂州市中医院 ,鄂州市鄂城区滨湖北路9号 ,436000,0711-3867603〓3867891 ,三甲 ,针灸、血管瘤、肝病科、肛肠科、骨伤科、肿瘤科等 ,湖北省 
孝感市中心医院 ,孝感市广场路6号 ,432100,0712-2823258(总)2833914 ,三甲 ,骨外科、头颈外科、普外科、耳鼻咽喉科、呼吸内科、产科 ,湖北省 
黄冈市第一人民医院 ,黄冈市考棚街11号 ,438100,0713-8353393〓8352571 ,三甲 ,,湖北省 
黄石市中心医院(原黄石市第三医院) ,黄石市天津路212号 ,435000,0714-6256686〓6222877 ,三甲 ,呼吸内科、内分泌科、神经内科、消化内科、骨科、妇科、口腔科等 ,湖北省 
黄石市中医院 ,黄石市广场路12号 ,435000,0714-6220894 ,三甲 ,心脏传导阻滞、骨伤科、康复科、针灸科、胃镜科等 ,湖北省 
咸宁医学院附属第一医院〓咸宁市中心医院 ,咸宁市温泉路39号 ,437100,0715-8255334(总)8230020 ,三甲 ,神经科、皮肤科、口腔科等 ,湖北省 
荆州市中心医院 ,荆州市荆中路72号 ,434100,0716-8496447〓8466417 ,三甲 ,关节镜手术、ICU、体外授精技术、PRK等 ,湖北省 
荆州市第一人民医院 ,荆州市航空路8号 ,434100,0716-8214001(总) ,三甲 ,普外科、心血管内科、血液内科、神经内科、免疫内分泌科、神经外科、骨科、耳喉鼻科等 ,湖北省 
荆州市中医院 ,荆州市江津东路172号 ,434000,0716-8126310 ,三甲 ,内科、外科、妇科、儿科、肛肠科、骨伤科、针灸科、按摩科、心脑血管内科、消化内科、肾病内科、血管科、泌外科、创伤外科等 ,湖北省 
宜昌市中心医院 ,宜昌市夷陵路127号 ,443003,0717-6483495 ,三甲 ,胸心外科、泌尿外科、病理科、心血管内科、神经内科、神经外科、耳鼻喉科、核医学科 ,湖北省 
宜昌市第一人民医院 ,宜昌市湖堤街1号 ,443000,0717-6222800(总)6223867 ,三甲 ,骨外科、神经外科、心血管内科、内分泌科、120急救中心 ,湖北省 
宜昌市第二人民医院〓宜昌市肿瘤医院 ,宜昌市西陵一路58号 ,443000,0717-6736618〓6776422 ,三甲 ,肿瘤化疗科、肿瘤内科、骨外科、泌尿专科、口腔科、肿瘤妇科 ,湖北省 
宜昌市中医院〓宜昌市中西医结合医院 ,宜昌市胜利三路2号 ,443003,0717-6224184 ,三甲 ,烧伤整形科、中西结合眼科、心肾血管病科、肛肠科、骨伤科、脊柱科、针灸推拿 ,湖北省
三峡大学葛洲坝中心医院(原中国葛洲坝集团中心医院) ,宜昌市樵湖一路60号 ,443002,0717-6734120〓6712888 ,三甲 ,神经内科、消化内科、神经外科、骨外科、泌尿外科、妇产科、耳鼻咽喉科、精神科、腹腔镜专科、疼痛专科、小儿脑性瘫痪专科、中西医结合专科、现代康复中心、白内障超声乳化中心、血液净化中心、老年保健中心、青少年近视门诊、小儿免疫学门诊等 ,湖北省 
恩施州中心医院 ,恩施州舞阳大街161号 ,445000,0718-8251850 ,三甲 ,肾移植、心脏直视手术、冠状动脉造影、冠脉内支架、冠脉内融栓、眼角膜移植、超声乳化白内障摘除术、眼后段手术、眼内激光 ,湖北省 
湖北省十堰市人民医院 ,湖北省十堰市朝阳中路23号 ,442000,0719-8652119〓8666352 ,三甲 ,生殖医学研究中心、急救中心、神经外科、口腔科 ,湖北省 
十堰市中医院 ,十堰市丹江路24号 ,442012,0719-8781061〓8791788 ,三甲 ,结石科、肝病科、风湿科、颈肩腰腿痛 ,湖北省 
十堰市太和医院〓郧阳医学院附属太和医院 ,十堰市人民南路29号 ,442000,0719-8801533〓8801520 ,三甲 ,神经内科、肿瘤科、放射科、皮肤科、妇产科、心血管内科、消化内科、外科、眼科等 ,湖北省 
东风汽车公司总医院〓郧阳医学院附属东风医院 ,十堰市大岭路10号 ,442008,0719-8223394〓8522174 ,三甲 ,肝脏移植、同种异体肾移植、器官移植、消化内科等 ,湖北省 
中国石化集团江汉石油管理局中心医院(广华) ,潜江市安康路3号 ,433124,0728-6502227〓6502921 ,三甲 ,永久性人工心脏起搏器植入术、颅底显微外科手术、心内直视手术等 ,湖北省 
中国人民解放军第一六一中心医院 ,武汉市汉口黄浦路68号 ,430010,027-50169114(总) ,三甲 ,,湖北省 
中国人民解放军四五七医院(原空军汉口医院) ,武汉市工农兵路83号 ,430012,027-87642402〓87510329 ,三甲 ,血液病科、烧伤整形科、肝胆外科、骨科、眼科、口腔科、神经外科 ,湖北省 
广州军区武汉总医院〓武汉华中医院 ,武汉市洪山区武珞路627号 ,430070,027-68878888 ,三甲 ,神经外科、眼科、胸心外科、血管神经创伤外科、放射影像中心 ,湖北省 
武警湖北总队医院 ,武汉市武昌民主路413号 ,430061,027-88872832(总) ,三甲 ,创伤科、泌外科、腹腔镜中心、神经内科、放射科、临床药学 ,湖北省 
中南大学湘雅医院 ,长沙市湘雅路87号 ,410008,0731-4327329 ,三甲 ,神经内科、普外科、烧伤科、神经外科、耳鼻喉科、血液科、中西医结合科、传染科等 ,湖南省 
中南大学湘雅二医院 ,长沙市人民中路86号 ,410011,0731-5295888(总) ,三甲 ,内分泌科、心血管内科、眼科、肝病科、胸心外科、心内科、普外科、脊柱外科、妇产科、肾脏病内科、儿科、泌尿外科、肝胆外科 ,湖南省 
中南大学湘雅三医院 ,长沙市桐梓坡路 ,410013,0731-8638888 ,三甲 ,儿科、骨科、泌尿外科、耳鼻喉科、消化内科、呼吸内科、妇产科、心血管内科、烧伤整形科、神经外科、神经内科、普外科、肾脏外科等 ,湖南省 
湖南中医学院第一附属医院 ,长沙市韶山中路95号 ,410007,0731-5600449 ,三甲 ,肝病、眼科、心脑血管病、热病、中医内科、疑难杂症、急诊科、内科、外科、骨伤科、妇产科、传染科、放射科、针灸科、白内障等 ,湖南省 
湖南中医学院第二附属医院〓湖南省中医院 ,长沙市蔡锷北路233号 ,410005,0731-4917708〓4912978 ,三甲 ,皮肤疮疡科、肾病专科、耳鼻咽喉科、肛肠科、骨伤科 ,湖南省 
湖南省中医研究院附属医院 ,长沙市麓山路58号 ,410006,0731-8854265〓8863699 ,三甲 ,肝病、肿瘤、脑病、心血管、肾病、脊柱外科治疗中心 ,湖南省 
湖南省人民医院 ,长沙市解放西路61号 ,410006,0731-2278071 ,三甲 ,肝胆外科、骨科、小儿科、神经外科、消化内科、内镜外科等 ,湖南省 
湖南省妇幼保健院 ,长沙市湘春路23号 ,410008,0731-4332122〓4332120 ,三甲 ,妇产科、妇幼保健专科 ,湖南省 
湖南省儿童医院〓湖南省红十字会医院 ,长沙市雨花梓园路82号 ,410007,0731-5600900 ,三甲 ,脑瘫康复中心、新生儿科、小儿急救、小儿外科等 ,湖南省 
湖南省肿瘤医院 ,长沙市咸嘉湖2号 ,410006,0731-8651812〓8651260 ,三甲 ,放疗科、肿瘤外科、肿瘤内科、妇瘤科、脑外科、骨肿瘤科、中医科、麻醉科、病理科等 ,湖南省 
岳阳市第一人民医院 ,岳阳市岳东路39号 ,414000,0730-8246701〓8225742 ,三甲 ,,湖南省 
湘潭市中心医院〓湘潭大学第一附属医院 ,湘潭市雨湖路210号 ,411100,0732-8214741 ,三甲 ,神经外科、心血管内科 ,湖南省 
株洲市第一医院 ,株洲市车站路24号 ,412000,0733-8223751(总机)8222513 ,三甲 ,消化内科、胸外科、内分泌科 ,湖南省 
株洲市中医院 ,株洲市人民中路50号 ,412000,0733-8222092 ,三甲 ,肝病科、骨伤科、针灸科等 ,湖南省 
南华大学附属第一医院(原衡阳医学院第一附属医院) ,衡阳市船山路69号 ,421001,0734-8279003〓8279009 ,三甲 ,肿瘤科、骨外科、心胸外科、泌尿外科等 ,湖南省 
南华大学附属第二医院(原衡阳医学院第二附属医院) ,衡阳市解放路60号 ,421000,0734-8288080〓8221577 ,三甲 ,神经内科、肾移植、消化内科、心血管内科、呼吸内科、造血细胞移植、断指再植、高位喉癌切除、食管静脉曲张套扎、体外循环心内直视术、白内障超声乳化 ,湖南省 
衡阳市中心医院 ,衡阳市华新开发区芙蓉路18号 ,421001,0734-8275763〓8275752 ,三甲 ,胸心外科、泌尿外科、心血管内科、消化内科 ,湖南省 
常德市第一人民医院 ,常德市人民东路388号 ,415003,0736-7788113 ,三甲 ,消化内科、神经内外科、骨科、肝胆外科、心血管内科、广德肿瘤治疗中心、器官移植、影像诊断中心等 ,湖南省 
益阳市中心医院〓益阳市第一人民医院(原益阳地区人民医院) ,益阳市康复南路8号 ,413000,0737-4225194〓4221578 ,三甲 ,心内直视手术、大网膜游离移植术等 ,湖南省 
益阳市第二人民医院 ,益阳市五一西路74号 ,413001,0737-4324149 ,三甲 ,普腹外科、心血管内科、肾脏病、糖尿病、呼吸科、消化专科、神经外科等 ,湖南省 
娄底市中心医院 ,娄底市长青中街51号 ,417000,0738-8313346〓8215760 ,三甲 ,骨外科、脊柱外科、耳鼻喉科等 ,湖南省 
邵阳市中心医院 ,邵阳市红旗路乾元巷36号 ,422000,0739-5328175〓5323380 ,三甲 ,心脑血管、介入治疗、骨科、肝病科 ,湖南省 
怀化市第一人民医院〓南华大学附属怀化医院 ,怀化市锦溪南路144号 ,418000,0745-2382411〓2383788 ,三甲 ,心血管内科、血液内科、心胸外科、泌尿外科、妇产科、肝胆外科、肿瘤科、眼科、儿科、老年病科等 ,湖南省 
宁远县人民医院 ,宁远县振兴路11号 ,425600,0746-7325035 ,三甲 ,骨科、妇科、皮肤科等 ,湖南省 
中国人民解放军第一六三医院 ,湖南省长沙洪山桥1号 ,410003,0731-4250163 ,三甲 ,骨外科、神经外科 ,湖南省 
中国人民解放军一六九中心医院 ,衡阳市珠晖区一六村1号 ,421002,0734-8483213〓8483217 ,三甲 ,骨科、消化内科、肝胆外科、胸心外科、传染结核科、肿瘤治疗中心、神经、烧伤整形外科 ,湖南省 
中山大学附属第一医院 ,广州市中山二路58号 ,510080,020-87755766(总)87750632 ,三甲 ,肾脏内科、消化内科、胃肠胰外科、血管甲状腺乳腺外科、肝胆外科、微创外科、骨外科、显微手外科、泌尿外科、器官移植中心、神经内科、生殖医学中心 ,广东省 
中山大学附属第二医院 ,广州市沿江西路107号 ,510120,020-81332199 ,三甲 ,内分泌内科、妇产科、小儿科、泌尿外科、口腔科、耳鼻喉科、普通外科、皮肤科、口腔颌面外科 ,广东省 
中山大学附属第三医院 ,广州市天河区天河路600号 ,510630,020-85516867(总) ,三甲 ,传染病科、精神心理科、风湿病科、耳鼻喉科、肝移植中心、风湿病研究中心、骨髓移植中心 ,广东省
中山大学肿瘤医院 ,广州市东风东路651号 ,510060,020-87765368〓87673713 ,三甲 ,肝胆科、鼻咽癌科、头颈科、胸科、生物治疗中心、心腹科、脑颅科 ,广东省 
中山大学中山眼科中心 ,广州市先烈南路54号 ,510060,020-87333209〓87330493 ,三甲 ,白内障专科、角膜病专科、葡萄膜炎、青光眼专科、眼底外科、眼底内科、眼外伤神经眼科、小儿遗传眼科 ,广东省 
广州中医药大学第一附属医院 ,广州市白云区机场路16号 ,510405,020-36591912〓36590540 ,三甲 ,内科、外科、骨伤科、妇科、儿科、针灸科、肿瘤科、推拿科、口腔科、皮肤科、性病治疗中心、泌尿男科、肛肠科、眼科、耳鼻喉科、预防保健科、美容科、类风湿关节炎、系统性红斑狼疮、股骨头坏死、癫痫病、哮喘、糖尿病、肾病、老年性痴呆等 ,广东省 
广州中医药大学第二附属医院〓广东省中医院 ,广州市天德路111号 ,510120,020-81887233〓81867705 ,三甲 ,心脏中心、神经科、肛肝外科、骨伤科、针灸科、儿科、呼吸系统疾病科、泌尿内科、普外科、乳腺科、肛肠中心、肿瘤科等 ,广东省 
暨南大学医学院第一附属医院〓广州华侨医院 ,广州市黄浦大道西613号 ,510630,020-38688888〓38688010 ,三甲 ,眼科、血液内科、泌尿外科、妇产科、儿科、耳鼻喉科、消化病中心、骨科等 ,广东省 
南方医科大学南方医院 ,广州市广州大道北1838号 ,510515,020-85141888〓87715137 ,三甲 ,消化医学科、肿瘤科、创伤科、肾脏病、心血管内科、血液病 ,广东省 
南方医科大学珠江医院 ,广州市工业大道中253号 ,510282,0759-84339888 ,三甲 ,骨科、儿科、肿瘤、耳鼻喉科、烧伤、整形美容 ,广东省 
广东省人民医院〓广东省精神卫生研究所〓广东省心血管病研究所 ,广州市东山区中山二路106号 ,510080,020-83827812(总)8384515 ,三甲 ,心血管病、老年病、眼科、血液病科、泌尿外科、腹部外科、核医学科、肿瘤科、心内科、心外科、儿内科等 ,广东省 
广东省妇幼保健院〓广州医学院附属广东省妇儿医院 ,广州市广园西路13号 ,510010,020-81118333〓86505085 ,三甲 ,妇女保健科、儿科、新生儿科、妇科、儿童保健科、产科、康复科、口腔科、内科、五官科等 ,广东省 
广州医学院第一附属医院(原广州市工人医院) ,广州市沿江西路151号 ,510120,020-83337862〓83337750(总) ,三甲 ,呼吸内科、窥镜外科、微创外科、肿瘤科、眼科、耳喉鼻科、麻醉科、神经科、血液科、普外科、骨科、肝胆外科等 ,广东省 
广州医学院第二附属医院 ,广州市昌岗东路250号 ,510260,020-34152299〓34152699 ,三甲 ,精神科、传染科、变态反应科、伽玛刀治疗研究中心、血液净化中心、消化内科、中医内科、口腔科、呼吸内科、眼科、耳喉鼻科、放射科、激光治疗科等 ,广东省 
广州医学院附属广州市第一人民医院 ,广州市越秀区盘福路1号 ,510180,020-81048190〓81045937 ,三甲 ,呼吸内科、泌尿外科、窥镜外科、胸外科、小儿血液科、心脏内科、脱发治疗、肝病诊治 ,广东省 
广州市第二人民医院 ,广州市多宝路63号 ,510150,020-83992008〓81292949 ,三甲 ,妇产科、骨外科、心血管内科、器官移植科 ,广东省 
广州市中医院 ,广州市珠玑路16号 ,510130,020-81886504(总)81888400 ,三甲 ,肿瘤科、心血管内科、神经内科、骨科、针灸科、肾内科、急诊科等 ,广东省 
广州市妇婴医院〓广州医学院附属妇婴医院 ,广州市人民中路402号 ,510180,020-81883711〓81887403 ,三甲 ,妇幼保健专科、儿童保健科、中医科、口腔科、产科、儿科、内科、外科、皮肤科、中医科、五官科、康复科等 ,广东省 
广州市儿童医院 ,广州市人民中路318号 ,510120,020-81886332(总) ,三甲 ,重症儿童救治中心、小儿外科、小儿神经内科、新生儿外科、新生儿急救监护 ,广东省 
广州市红十字会医院〓暨南大学医学院第四附属医院 ,广州市同福中路396号 ,510220,020-84412233〓84429803 ,三甲 ,骨科、烧伤整形科、检验科、心血管内科、眼科等 ,广东省 
广州市胸科医院〓广州市结核病医院 ,广州市横枝岗路62号 ,510095,020-83595977〓83488600 ,三甲 ,胸内科、胸外科、结核病科等 ,广东省 
广州市精神病医院〓广州市脑科医院 ,广州市明心路36号 ,510370,020-81891425〓81891391 ,三甲 ,老年精神科、脑内科、心理专科等 ,广东省 
广东药学院附属第一医院(原广州铁路中心医院) ,广州市农林下路19号 ,510080,020-61325537〓61321637 ,三甲 ,骨外科、心血管内科 ,广东省
广东三九脑科医院(民营) ,广州市沙太路158号 ,510510,0755-87736999 ,三甲 ,颅内和脊髓肿瘤、颅脑外伤、脑血管病、顽固性头痛、老年性痴呆、心理和行为障碍、精神病等 ,广东省 
江门市中心医院 ,江门市海旁街23号 ,529071,0750-3165500(总) ,三甲 ,心脑疾病、微创手术、肿瘤治疗等 ,广东省 
江门市五邑中医院(原江门市中医院) ,江门市华园东路30号 ,529031,0750-3528288 ,三甲 ,内科、外科、颅脑外科、风湿病、急诊病等 ,广东省 
韶关市粤北人民医院 ,韶关市惠民南路 ,512025,0751-8101633〓8101956 ,三甲 ,中医内科、骨科、心血管内科、肿病外科、儿科、烧伤整形科、肿瘤科 ,广东省 
惠州市中心人民医院〓广东医学院附属惠州医院 ,惠州市鹅岭北路41号 ,516001,0752-2288288(总)2288257 ,三甲 ,神经内科、创伤骨科、人工股骨头置换术、全髋关节置换术、脊柱侧弯驼背矫形术、椎体前路减压脊柱重建术等 ,广东省 
梅州市人民医院〓梅州市黄塘医院 ,梅州市梅江区黄塘路 ,514031,0753-2202832〓2203936 ,三甲 ,肿瘤科、骨科、心脏外科 ,广东省 
汕头大学医学院第一附属医院 ,汕头市长平路57号 ,515041,0754-8258290〓8259851 ,三甲 ,心血管内科、风湿病、生殖中心、新生儿中心、神经外科中心 ,广东省 
汕头市中心医院 ,汕头市外马路114号 ,515031,0754-8550450〓8531763 ,三甲 ,心外科、心内科、眼科、骨科、心血管外科等 ,广东省 
深圳市人民医院〓暨南大学医学院第二附属医院 ,深圳市东门北路1017号 ,518020,0755-25533018〓25531387 ,三甲 ,心血管内科、老年医学科、创伤骨科、妇产科、胃肠外科等 ,广东省 
广州中医药大学深圳附属医院〓深圳市中医院 ,深圳市福田区福华路1号 ,518033,0755-83334009〓83334055 ,三甲 ,中医消化内科、骨伤科、肝病科、急诊科、肾病科、痔瘘科、泪道病、蛇伤、男科等 ,广东省 
深圳市第二人民医院(原深圳市红会医院) ,深圳市笋岗西路3002号 ,518035,0755-83366388(总)83791958 ,三甲 ,血液病、创伤外科、神经外科 ,广东省 
珠海市人民医院〓暨南大学医学院第三附属医院 ,珠海市康宁路79号 ,519000,0756-2116822〓2218950 ,三甲 ,心血管内科、妇科肿瘤、骨科、呼吸内科、血液内科、消化内科、泌尿内科、神经内等 ,广东省 
广东省中医院珠海医院 ,珠海市景乐路53号 ,519015,0756-3359485〓3359376 ,三甲 ,心血管内科、呼吸内科、血液内科、消化内科、泌尿内科、内分泌内科、神经内科、脊柱科等 ,广东省 
珠海市妇幼保健院 ,珠海市香洲区柠溪路543号 ,519000,0756-2313088 ,三甲 ,小儿外科、妇产科、儿童保健科 ,广东省 
佛山市第一人民医院 ,佛山市文沙路91号 ,528000,0757-83833633(总) ,三甲 ,颅脑外科、心血管内科、胸心血管外科、儿科、妇产科、角膜移植、全喉切除、脊椎脊髓外科中心、癫痫科等 ,广东省 
佛山市中医院 ,佛山市亲仁路6号 ,528000,0757-82223243〓82224121 ,三甲 ,骨伤科、肛肠科、心血管内科、手显外科等 ,广东省 
佛山市南海区人民医院 ,佛山市南海区佛平路40号 ,528200,0757-86337457 ,三甲 ,泌尿内科、消化内科、心血管内科、妇产科、神经内科、呼吸内科、烧伤科、普外科等 ,广东省 
肇庆市第一人民医院 ,肇庆市城中路174号 ,526021,0758-2832839〓2832139 ,三甲 ,妇科、肝胆外科、新生儿科、眼科、心血管内科、神经内科、呼吸内科、消化内科、心胸外科、神经外科、泌尿外科、烧伤整形外科等 ,广东省 
广东医学院附属医院 ,湛江市霞山区人民大道南57号 ,524001,0759-2387612〓2387449 ,三甲 ,儿科、血液内科、肾脏内科、皮肤性病科、妇产科、眼科、神经内科、口腔科、心血管内科、整形外科、呼吸内科、肝胆外科等 ,广东省 
广东省农垦中心医院 ,湛江市人民大道中2号 ,524002,0759-2633603〓2633919 ,三甲 ,骨外科、妇产科、肾内科、肿瘤科、肾病、神经外科、烧伤科、老年康复等 ,广东省
广东药学院附属中山医院〓中山市人民医院 ,中山市孙文中路2号 ,528403,0760-8823566〓8841707 ,三甲 ,泌尿外科、妇产科、儿科、传染科、眼科、口腔科、神经外科、骨外科、肿瘤内科、烧伤整形科、心胸外科、耳鼻喉科等 ,广东省 
中山市中医院 ,中山市悦来南南安路2号 ,528400,0760-8807807〓8803661(总) ,三甲 ,骨伤科、心血管专科、康复科、中医急症科、内科、外科 ,广东省 
清远市人民医院〓暨南大学医学院第五附属医院 ,清远市曙光二路22号 ,511500,0763-3312032 ,三甲 ,妇产科、皮肤科 ,广东省 
东莞市人民医院 ,东莞市沙地塘88号 ,523018,0769-2223412〓2232626 ,三甲 ,肿瘤科、泌尿外科、产科、妇科、心胸外科、眼科、耳鼻喉科等 ,广东省 
东莞市中医院 ,东莞市城区环城路61号 ,523005,0769-2235588〓2223545 ,三甲 ,骨伤科、痔疮科、中风防治中心、脾胃专科、痔瘘专科、针灸科等 ,广东省 
阳江市人民医院 ,阳江市江城区东山南路14号 ,529500,0662-3225220〓3218171 ,三甲 ,骨外科、肝胆外科、整形外科等 ,广东省 
茂名市人民医院 ,茂名市为民路101号 ,525000,0668-2922688〓2927520 ,三甲 ,皮肤科、耳鼻喉科、老年病科、肿瘤科、呼吸内科等 ,广东省 
茂名市中医院 ,茂名市油城五路7号 ,525000,0668-2281470〓2286775 ,三甲 ,中风防治科、康复科 ,广东省 
电白县人民医院 ,电白县上排路3号 ,525400,0668-5522548 ,三甲 ,心胸外科、消化内科、妇产科等 ,广东省 
广州军区广州总医院 ,广州市流花路111号 ,510010,020-36224920 ,三甲 ,呼吸内科、创伤外科、骨科、心血管内科、肾病、胆道疾病、顽固性腹水、糖尿病、甲状腺病、重度颅脑损伤、内分泌科、消化内科、神经内科、冠心病、普外科等 ,广东省 
中国人民武装警察部队广东省总队医院 ,广州市燕岭路268号 ,510507,020-87041155〓61627499 ,三甲 ,烧伤显微外科、骨外科、泌尿外科、神经外科、老年病科、优生优育技术中心等 ,广东省 
中国人民解放军广州军区一五七中心医院 ,广州市沙河梅花园 ,510510,020-61657114〓61657010 ,三甲 ,肿瘤科、骨外科、泌尿科、妇产科、烧伤整形科、心血管内科、脊柱外科中心、肛肠外科、中西医结合、内分泌科等 ,广东省 
中国人民解放军第四二一医院 ,广州市新港中路468号 ,510318,020-84219995 ,三甲 ,,广东省 
中国人民解放军第四五八医院(空军广州中心医院) ,广州市东风东路801号 ,510602,020-81639701 ,三甲 ,神经外科、人工心脏瓣膜置换、人工心脏起搏器安装、脑立体定向术、心肌梗塞救治、脑血管疾病、传染病、肝病等 ,广东省 
中国人民解放军第一七三医院 ,惠州市鹅岭南路20号 ,516001,0752-2260032 ,三甲 ,普外科、泌尿外科 ,广东省 
中国人民解放军第四二二医院 ,湛江市海滨三路40号 ,524005,0759-3565321〓3380420 ,三甲 ,心血管内科、骨科 ,广东省 
中国人民解放军第一九六医院 ,湛江市东坎区北桥路14号 ,524039,0759-3106350 ,三甲 ,眼科、腹部外科、普外科、骨科 ,广东省 
广西医科大学第一附属医院 ,南宁市双拥路6号 ,530021,0771-5350895〓5352627 ,三甲 ,儿科、耳鼻喉科、内科、外科、妇产科 ,广西壮族自 
广西医科大学附属肿瘤医院〓广西肿瘤防治研究所 ,南宁市滨湖路6号 ,530027,0771-5310848〓5313603 ,三甲 ,肿瘤外科 ,广西壮族自 
广西医科大学附属口腔医院 ,南宁市滨湖路10号 ,530021,0771-5315946〓2801477 ,三甲 ,急诊科、放射科、口腔科等 ,广西壮族自
广西中医学院第一附属医院〓广西壮族自治区中医院 ,南宁市园湖路2号 ,530023,0771-5848605〓5862294 ,三甲 ,骨伤科、针灸科、心血管科、肛肠病科、内分泌科、脑病科、肾病科、妇产科、儿科、眼科、肿瘤科、烧伤科 ,广西壮族自 
广西中医学院附属瑞康医院〓广西中西医结合医院(原广西中医学院附属第二医院) ,南宁市华东路10号 ,530011,0771-2431003(总)2425330 ,三甲 ,消化内科、心血管内科、泌尿内科、神经内科、神经外科、胸外科、心外科、泌尿外科、骨科、整型外壳、烧伤科、针灸科、口腔科等 ,广西壮族自 
广西壮族自治区人民医院〓广西壮族自治区红十字会医院 ,南宁市桃源路6号 ,530021,0771-2802018 ,三甲 ,心血管内科、胸心血管外科、眼科、胃肠外科、呼吸内科、妇产科、口腔科、消化内科、泌尿内科、骨科、临床检测中心、鼻咽癌、老年病等 ,广西壮族自 
广西壮族自治区妇幼保健院 ,南宁市新阳路225号 ,530003,0771-3153941(总) ,三甲 ,妇产科、不育症、中西医结合科、小儿普外科等 ,广西壮族自 
广西民族医院 ,南宁市明秀东路34号 ,530001,0771-3133128〓3110798 ,三甲 ,眼科、耳喉鼻科、放射科、骨科、免疫内分泌科、呼吸内科、消化内科、心血管内科、泌尿内科、神经外科、胸外科、泌尿外科、妇科、中西医结合科、口腔科等 ,广西壮族自 
南宁市第一人民医院 ,南宁市七星路89号 ,530022,0771-2617892〓2636198 ,三甲 ,心血管内科、普外科、泌尿外科等 ,广西壮族自 
广西医科大学第三附属医院〓南宁市第二人民医院 ,南宁市淡村路13号 ,530031,0771-4839795〓4821546 ,三甲 ,烧伤整形、骨科、血液科、泌尿生殖、颅脑外科、胸心外科、消化内科、心血管内科等 ,广西壮族自 
广西医科大学附属第五医院〓柳州市人民医院 ,柳州市广场路8号 ,545001,0772-2812433 ,三甲 ,心血管内科、肝胆胰外科、妇科 ,广西壮族自 
柳州市中医院〓广西中医学院第三附属医院 ,柳州市解放北路32号 ,545001,0772-2827846〓2859492 ,三甲 ,内科、骨科、创伤科、心血管科、肾病、运动神经、消化系统、眼科 ,广西壮族自 
柳州市中西医结合医院 ,柳州市鱼峰区荣军路115号 ,545005,0772-3833869 ,三甲 ,,广西壮族自 
柳州市工人医院〓广西医科大学第四附属医院 ,柳州市柳石路1号 ,545005,0772-3815284〓3838874 ,三甲 ,心血管内外科、神经内外科、肿瘤科、骨科、泌尿外科、整形外科、血液病科等 ,广西壮族自 
柳州市铁路中心医院 ,柳南区飞鹅路利民区14号 ,545007,0772-3923527〓3917329 ,三甲 ,肾病、泌尿外科、心血管内科、断指再植 ,广西壮族自 
桂林医学院附属医院 ,桂林乐群路95号 ,541001,0773-2833086〓2823244 ,三甲 ,器官移植、糖尿病防治、肝胆胰外科、心血管病、围产医学、血液病、消化内科、中医内科、儿科等 ,广西壮族自 
桂林市人民医院 ,桂林市文明路12号 ,541002,0773-2820816 ,三甲 ,内科、心血管内科、消化内科、内分科、泌尿内科、呼吸内科 ,广西壮族自 
桂林市中医院 ,桂林市临桂路2号 ,541002,0773-2823325〓2823496 ,三甲 ,乳腺专科、骨伤专科、中风疾病专科、蛇伤专科、肛肠专科、妇科、血液病科、肿瘤科等 ,广西壮族自 
桂林南溪山医院 ,桂林崇信路46号 ,541002,0773-3832001(总)3835082 ,三甲 ,心胸外科、泌尿外科、心血管内科、肿瘤科 ,广西壮族自 
梧州市中医院 ,梧州市新兴二路142号 ,543000,0774-2023634 ,三甲 ,中医内科、中医妇科 ,广西壮族自 
梧州市工人医院 ,梧州市万秀区高地路南三巷1号 ,543001,0774-2026723〓2028833 ,三甲 ,心胸外科、肾病内科、神经外科、心血管内科、眼科 ,广西壮族自 
玉林市第一人民医院〓广西医科大学第六附属医院 ,玉林市教育中路19号 ,537000,0775-2673887 ,三甲 ,神经内科、神经外科、心血管内科、心血管外科、骨科、新生儿科 ,广西壮族自 
玉林市骨科医院 ,玉林市教育中路597号 ,537000,0775-2824515〓2805187 ,三甲 ,创伤骨科、矫正科、骨病科、显微骨科、手外科、脊柱外科、骨病骨肿瘤治疗科、中西医结合等 ,广西壮族自
百色地区人民医院 ,百色市城乡路8号 ,533000,0776-2851178〓2825317〓2842778 ,三甲 ,胸心外科、心血管内科、内分泌科等 ,广西壮族自 
右江民族医学院附属医院 ,百色市中山二路18号 ,533000,0776-2824233 ,三甲 ,泌尿外科、儿科、神经内科、人工关节假体置换术、鼻内窥镜下鼻腔泪囊吻合术、鼻息肉摘除术 ,广西壮族自 
钦州市第一人民医院 ,钦州市钦南区前进路6号 ,535000,0777-2810549〓2824630 ,三甲 ,,广西壮族自 
钦州市第二人民医院 ,钦州市文峰南路219号 ,535000,0777-2824745 ,三甲 ,神经内科、心血管内科、内镜科、神经外科、肿瘤专科、骨外科等 ,广西壮族自 
河池地区人民医院 ,宜州市庆远镇桂鱼路124号 ,546300,0778-3212583 ,三甲 ,,广西壮族自 
北海市人民医院 ,北海市和平路83号 ,536100,0779-2022201〓2023992 ,三甲 ,心胸外科、妇产科 ,广西壮族自 
中国人民解放军三Ｏ三医院 ,南宁市植物路52号 ,530021,0771-2801416〓2870304 ,三甲 ,血液病科、骨科 ,广西壮族自 
中国人民解放军一八一医院〓桂林漓江医院 ,桂林市民主路174号 ,541002,0773-2081601 ,三甲 ,泌尿外科、神经内科、烧伤科、皮肤科、肾移植科、肿瘤科、眼科、等 ,广西壮族自 
海南医学院附属医院 ,海口市新华区龙华路31号 ,570102,0898-66773142〓66772248 ,三甲 ,妇产科、心血管科、眼科、心脏外科、肿瘤外科、泌尿外科、颅脑外科、整形外科、口腔科、肾内科等 ,海南省 
海南省人民医院 ,海口市秀英区秀华路19号 ,570311,0898-68665097 ,三甲 ,骨科、传染病、热带病、耳鼻喉科、心血管内科 ,海南省 
海南省中医院 ,海口市和平北路47号 ,570203,0898-66222705〓66214468〓66223 ,三甲 ,骨伤科、中风康复科、耳鼻喉科、口腔科、按摩科、中医男科等 ,海南省 
海口市人民医院〓中南大学湘雅医学院附属海口医院 ,海口市人民大道43号 ,570208,0898-66189688〓66189666 ,三甲 ,男性泌尿外科、肺炎科、神经外科、心血管病等 ,海南省 
海南省工人医院〓海南省农垦总局医院 ,海口市白水塘路48号 ,570311,0898-66822678(总机)66817562 ,三甲 ,心血管内科、普外科、肿瘤科等 ,海南省 
海南省第三人民医院〓海南省农垦三亚医院 ,三亚市解放四路128号 ,572000,0898-88298115〓88298958 ,三甲 ,心血管疾病、神经外科、肿瘤科、心胸外科 ,海南省 
中国人民解放军一八七中心医院 ,海口市龙昆南路100号 ,571159,0898-65884569〓66712297 ,三甲 ,血液病科、传染病科、肝胆外科、心胸外科 ,海南省 
重庆医科大学附属第一医院 ,重庆市渝中区友谊路1号 ,400016,023-68811360〓68811487 ,三甲 ,传染病、神经内科、普内科、皮肤科、胃肠疾病、外科、乳腺疾病、心管外科、癫痫、糖尿病等 ,重庆市 
重庆医科大学附属第二医院 ,重庆市渝中区临江路74号 ,400010,023-63832133〓63711527 ,三甲 ,妇科、消化内科、呼吸内科、心血管内科、泌尿内科、神经科、免疫内分泌科、普外科、胸外科、血液内科、肝胆外科、传染科、康复理疗科等 ,重庆市 
重庆医科大学附属儿童医院 ,重庆市市中区中山二路136号 ,400014,023-63632756 ,三甲 ,儿童保健科、儿内科、眼科、耳喉鼻科 ,重庆市 
重庆市第一人民医院〓重庆市中西医结合医院 ,重庆市渝中区道门口街40号 ,400011,023-63841324〓63725764 ,三甲 ,皮肤病、肩周炎、前列腺疾病、心血管疾病、糖尿病、甲亢、骨科等 ,重庆市 
重庆市第三人民医院 ,重庆市渝中区枇杷山正街104号 ,400014,023-63515265〓63513194 ,三甲 ,泌尿内科、烧伤科、眼科、呼吸科、消化科、心血管科、血液科、神经科、免疫内分泌科、普外科、泌尿外科、骨科、肝胆外科、妇科、产科、耳喉鼻科、老年病科等 ,重庆市 
重庆市第四人民医院 ,重庆市渝中区健康路1号 ,400014,023-63692008〓63854632 ,三甲 ,创伤科、院前急救、ICU、脑外科、心内科、眼科 ,重庆市 
重庆市第五人民医院(原重庆仁济医院) ,重庆市南岸区仁济路24号 ,400062,023-62896103〓62872672 ,三甲 ,泌尿科、新生儿科、性生殖医学 ,重庆市 
重庆市第九人民医院〓重庆医科大学北碚附属医院 ,重庆市北碚区嘉陵村69号 ,400700,023-68865906〓68867941〓688679 ,三甲 ,普内科、心血管内科、消化内科、传染病科、产科、心内科、神经内科 ,重庆市 
重庆市中医研究所〓重庆市第一中医院〓重庆市中医研究所附院 ,重庆市渝中区北区路1号 ,400013,023-63500839〓63513369 ,三甲 ,针灸科、妇科、老年科、肾病科、骨伤科、肛肠科、四肢血管科等 ,重庆市 
重庆市中医院 ,重庆市渝中区民族路88号 ,400010,023-63835257〓63833171 ,三甲 ,针灸科、推拿科、肿瘤科、耳鼻喉科、脑病、肛肠科、痔瘘科、中医外科、中医免疫等 ,重庆市 
重庆市妇幼保健院〓重庆市妇产科医院 ,重庆市七星岗金汤街64号 ,400010,023-63846175〓63840863 ,三甲 ,妇产科、计划生育科、生殖内分泌科、儿科 ,重庆市 
重庆三峡中心医院 ,重庆市万州区新城路165号 ,404000,023-58122622 ,三甲 ,儿科、神经内科、心内科、心胸外科、泌尿外科、肿瘤科、骨科 ,重庆市 
重庆市红十字会医院 ,重庆市江北区红会村1号 ,400024,023-67562595 ,三甲 ,五官科、口腔科、皮肤科、中医科 ,重庆市 
长安汽车有限责任公司第二职工医院 ,重庆市江北区建新东路260号 ,430023,023-67592489 ,三甲 ,精神科、五官科、口腔科、中医科、传染病科等 ,重庆市 
重庆市肿瘤医院〓重庆市肿瘤研究所 ,重庆市沙坪坝区汉渝路181号 ,400030,023-65311341〓65305442 ,三甲 ,乳腺科、妇瘤科、肝胆科、腹瘤科、脑外科、头颈科、胸外科、泌尿科、骨瘤科、内科、产科、皮肤科、中西医结合肿瘤科 ,重庆市 
重庆市中山医院 ,重庆市渝中区中山一路312号 ,400013,023-63527121〓63515796 ,三甲 ,心肺血管疾病、骨伤骨病 ,重庆市 
重庆涪陵中心医院〓重庆医科大学涪陵附属医院 ,重庆市涪陵区高笋塘路2号 ,408000,023-72224460〓72226100 ,三甲 ,心血管内科、消化内科、神经外科、肝胆外科、烧伤整形科、泌尿外科、骨科、超声科、普外科、胸心外科等 ,重庆市 
第三军医大学第一附属医院〓重庆市西南医院 ,重庆沙坪坝区高滩岩正街30号 ,400038,023-68754015〓65318301 ,三甲 ,呼吸内科、消化科、心血管科、肝胆外科、妇科、中医内科、口腔科、康复理疗科、普外科、神经科、传染科、骨科、肿瘤科、整型外科等 ,重庆市 
第三军医大学第二附属医院〓重庆新桥医院 ,重庆沙坪坝区新桥街 ,400037,023-68755114(总机)68755012 ,三甲 ,心血管内科、呼吸内科、消化内科、内分泌科、肾内科、心脑肝肺肾科等大器官疾病诊断治疗 ,重庆市 
第三军医大学第三附属医院〓重庆市大坪医院 ,重庆渝中区大坪长江支路10号 ,400042,023-68811229〓68757399 ,三甲 ,心脏移植、肝移植、肺移植、骨髓移植、骨关节移植、断肢再植、内耳手术、试管婴儿等 ,重庆市 
中国人民解放军三二四医院 ,重庆江北区建新东路29号 ,400020,023-67850322 ,三甲 ,神经外科、心血管内科、骨科、烧伤创伤外科、心胸外科、消化内科、普外科、泌尿外科、眼科等 ,重庆市 
武警重庆总队医院 ,重庆南岸区弹子石卫国路90号 ,400061,023-62505949〓62511985 ,三甲 ,呼吸科、心血管科、消化科、神经内科、内分泌科、血液科、肾病科、小儿科、传染病科、肝胆科、胸外科、脑外科、泌尿科、创伤外科、骨科、显微外科、耳鼻喉科、口腔科等 ,重庆市 
四川大学华西医院 ,成都市武侯区国学巷37号 ,610041,028-85551331〓85583231 ,三甲 ,胸心血管外科、传染病、呼吸内科、肾内科、儿外科、皮肤性病科、精神科、泌尿外科、肝胆外科、骨科、肿瘤科等 ,四川省 
四川大学华西第二医院〓华西妇产儿童医院 ,成都市人民南路三段20号 ,610041,028-85568677(总) ,三甲 ,妇科肿瘤、高危妊娠的诊治、助孕技术及胚胎移植、电视宫腔镜和腹腔镜诊治、小儿血液肿瘤诊治、新生儿先天性感染、缺氧缺血性脑病、小儿先心病介入治疗、小儿肾脏、消化疾病 ,四川省 
四川大学华西第三医院 ,成都市二环路南三段 ,610041,028-85159670〓82942120 ,三甲 ,,四川省
四川大学华西口腔医院 ,成都市人民南路三段14号 ,610041,028-85501480 ,三甲 ,口腔内科、口腔颌面外科、口腔颞颌关节科 ,四川省 
四川省人民医院 ,成都市一环路西二段32号 ,610072,028-87769981〓87769393 ,三甲 ,血液科、内分泌科、肝胆外科、眼科、检验科、心血管内科、神经内科、心血管内科、肾内科、泌尿外科等 ,四川省 
四川省第二人民医院〓四川省肿瘤医院 ,成都市人民南路四段55号 ,610041,028-85420116〓85420241〓854203 ,三甲 ,非小细胞肺癌、乳腺癌、直肠癌、恶性淋巴瘤、原发性肝癌 ,四川省 
成都中医药大学附属医院 ,成都市十二桥路39-41号院 ,610072,028-87769902 ,三甲 ,眼科、肾脏疾病、急诊科、肛肠科等 ,四川省 
四川省妇幼保健院〓四川省妇女儿童医院 ,成都市抚琴西路338号 ,610031,028-87798496〓87738249 ,三甲 ,妇女保健、儿童保健、妇幼心理营养咨询、妇产科、儿科 ,四川省 
成都市第一人民医院〓成都市中西医结合医院 ,成都市春熙路东段2号 ,610016,028-86657254 ,三甲 ,呼吸内科、普外科、针灸科、神经外科、心血管专科、儿童脑瘫、变态反应专科、重症监护系统、心脑血管介入 ,四川省 
成都市第二人民医院 ,成都市庆云南街10号 ,610017,028-86621522 ,三甲 ,烧伤整形科、皮肤科、肝胆胰外科 ,四川省 
成都市第三人民医院 ,成都市青羊区青龙街82号 ,610031,028-86649831〓86638387 ,三甲 ,血液科、心内科、骨科、消化内科 ,四川省 
成都市妇幼保健院 ,成都市实业街32号 ,610031,028-86260292〓86636871 ,三甲 ,妇科、产科、妇女儿童保健、中西医不孕不育专科、内分泌疾病专科、宫颈病治疗、宫、腹腔镜手术、胎儿监护及远程监护中心、全程无痛分娩、月子病房、女性健康关怀中心等 ,四川省 
国家体育总局成都运动创伤研究所〓国家体育总局成都体育医院 ,成都市武侯区一环路西段132号 ,610041,028-87027425〓87014160 ,三甲 ,中医骨科、西医骨科、针灸推拿科 ,四川省 
成都医学院附属医院(原成都军医学院附属学院) ,成都市新都区 ,610500,028-83999111 ,三甲 ,,四川省 
攀枝花市中心医院 ,攀枝花市大河北路三村60号 ,617067,0812-2238459〓2238008 ,三甲 ,妇产科、核医学科、心血管内科、普外科、肿瘤科等 ,四川省 
绵阳市中心医院 ,绵阳市常家巷12号 ,621000,0816-2222821〓2230063 ,三甲 ,耳鼻喉科、放射科、胸心外科、内分泌科、肝胆外科 ,四川省 
四川省精神卫生中心〓绵阳市第三人民医院 ,绵阳市剑南路东段190号 ,621000,0816-2282249〓2296100 ,三甲 ,心身疾病科、尿复科、神经内科、脑外科等 ,四川省 
川北医学院附属医院 ,南充市文化路113号 ,637000,0817-2222856〓2262111 ,三甲 ,心血管内科、泌尿外科、胸外科、皮肤科、普外科、神经内科、内科、外科、妇产科、儿科等 ,四川省 
达州市中心医院(原达川地区人民医院) ,达州市通川区大东街(柴市街)151号 ,635000,0818-2122114〓2371653 ,三甲 ,呼吸科、耳鼻咽喉科、脑外科、心胸外科、泌尿科、体外循环心内直视手术、腔内泌尿外科手术、断肢断指(趾)再植术、肾移植等 ,四川省 
遂宁市人民医院 ,遂宁市德胜路西段84号 ,629000,0825-2292270 ,三甲 ,消化内科、神经内科、呼吸内科、心血管内科、心胸外科 ,四川省 
泸州医学院附属医院 ,泸州市太平街25号 ,646000,0830-2392712〓2392753 ,三甲 ,神经内科、普外科、耳鼻喉科、心血管内科、感染科、肿瘤科 ,四川省 
宜宾市第二人民医院 ,宜宾市北正街19号 ,644000,0831-8252118〓8255569 ,三甲 ,骨外科、妇产科、普外科、肝胆科、眼科 ,四川省 
中国人民解放军成都军区总医院 ,成都市金牛区天回镇 ,610083,028-86570213〓86570114 ,三甲 ,骨科、心胸外科、泌尿内外科中心、神经外科、烧伤整形科、口腔科、眼科、耳鼻喉科、心血管内科、消化内科、呼吸内科、神经内科、血液科、内分泌科、肿瘤科 ,四川省
空军成都医院〓中国人民解放军第四五二医院 ,成都市锦江区工农院街1号 ,610061,028-84512766 ,三甲 ,神经外科、肾病内科、心胸外科、泌尿科、烧伤整形科、肿癌科、消化内分泌科等 ,四川省 
贵州省人民医院 ,贵阳市中山东路52号 ,550002,0851-5922920 ,三甲 ,神经内科、心血管内科、心脏外科、听力康复 ,贵州省 
贵阳医学院附属医院〓贵州省肿瘤医院 ,贵阳市北京路1号 ,550004,0851-6855119 ,三甲 ,呼吸内科、小儿内科、外科、神经外科、神经内科、血液内科、肿瘤科、放射科、骨科、妇科 ,贵州省 
贵阳中医学院第二附属医院 ,贵阳云岩区飞山街83号 ,550003,0851-5282687 ,三甲 ,心血管内科、泌尿内科 ,贵州省 
贵阳市妇幼保健院〓贵阳市儿童医院 ,贵阳市瑞金南路63号 ,550003,0851-5965786 ,三甲 ,产科、新生儿科 ,贵州省 
遵义医学院附属医院 ,遵义市大连路113号 ,563003,0852-8622044 ,三甲 ,麻醉学、肿瘤科、小儿外科、血液科、骨外科、心血管内科、急腹症科等 ,贵州省 
遵义市中医院 ,凤凰南路文庙巷8号 ,563000,0852-8222630 ,三甲 ,中医内科、中医儿科、骨伤科、推拿科等 ,贵州省 
云南省第一人民医院〓昆华医院 ,昆明市金碧路157号 ,650032,0871-3634031〓3635939 ,三甲 ,内分泌科、胸心外科、呼吸内科、血液内科、心血管内科、神经内科、肝胆外科、普外科、骨科、眼科、耳鼻喉科、生殖遗传科、血管外科 ,云南省 
云南省第二人民医院〓云南省红十字会医院 ,昆明市五华区青年路176号 ,650021,0871-5156650〓5155677 ,三甲 ,泌尿外科、外科 ,云南省 
云南中医学院第一附属医院〓云南省中医院 ,昆明市盘龙区光华街120号 ,650021,0871-3610454〓3620295〓3610935 ,三甲 ,中医专科、眼科、风湿科 ,云南省 
昆明医科大学第一附属医院 ,昆明市西昌路295号 ,650032,0871-5321934 ,三甲 ,皮肤科、心脏内科、精神科、骨科、外科、胸外科、泌尿外科、心脏外科、消化内科、呼吸内科、内分泌专科、耳鼻喉科、妇产科、小儿科、中医科等。 ,云南省 
昆明医科大学第二附属医院 ,昆明市西山区麻园1号 ,650101,0871-5352087〓5351214 ,三甲 ,甲状腺外科、肝胆胰外科、肝癌外科、皮肤科等 ,云南省 
昆明市第一人民医院 ,昆明盘龙区巡津街35号 ,650011,0871-3188200(总机)3188091 ,三甲 ,心血管内科、儿内科 ,云南省 
昆明市中医院 ,昆明市盘龙区东风东路27号 ,650011,0871-3135802〓3175186 ,三甲 ,针灸科、肛肠痔瘘科 ,云南省 
昆明市延安医院 ,昆明市盘龙区人民东路64号 ,650051,0871-3166266〓3177468 ,三甲 ,心胸外科、呼吸内科、心血管内科、妇产科 ,云南省 
西双版纳州人民医院 ,景洪市嘎兰南路17号 ,666100,0691-2123849 ,三甲 ,新生儿疾病、血液病科、热带传染病、心脏血管疾病、肝胆外科、泌尿外科 ,云南省 
大理州人民医院 ,大理市人民南路122号 ,671000,0872-2125465 ,三甲 ,视力残疾康复中心、心血管疾病研究室、临床检验中心、创伤骨病研究室、牙病防治中心、糖尿病治疗教育中心、远程可视医疗会诊中心、医疗急救中心等 ,云南省 
玉溪市人民医院 ,玉溪市红塔路21号 ,653100,0877-2025154〓2026397 ,三甲 ,普外科、口腔科 ,云南省 
玉溪市中医院 ,玉溪市红塔路上段 ,653100,0877-6100620 ,三甲 ,民族民间医药科、中医专科 ,云南省 
成都军区昆明总医院 ,昆明市大观路212号 ,650032,0871-4074999 ,三甲 ,创伤外科、显微外科、骨科、肝胆外科、中西医结合中心、血管外科、中医内科、心脏介入治疗等 ,云南省
中国人民解放军第五十九医院 ,开远市 ,650223,0873-7122988 ,三甲 ,创伤显微外科、肝胆腹部外科、胸颅脑外科、心肾血液内科 ,云南省 
西藏自治区人民医院 ,拉萨市林廓北路18号 ,850000,0891-6371462 ,三甲 ,高山病、心血管病、消化、骨科、胸外、脑外、泌尿 ,西藏自治区 
中国人民解放军西藏军区总医院 ,拉萨市阳扎路 ,850000,0891-6253315 ,三甲 ,高山病防治中心、野战外科中心 ,西藏自治区 
西安交通大学第一附属医院 ,西安市雁塔西路277号 ,710061,029-85323338〓85324013 ,三甲 ,普外科、泌尿外科 ,陕西省 
西安交通大学第二附属医院 ,西安市西五路157号 ,710004,029-87679000 ,三甲 ,普通外科、骨外科、消化内科、皮肤科、心血管内科、呼吸内科、血液内科、小儿外科、心外科、泌尿外科、神经外科、妇产科、儿科、眼科、耳鼻喉科、感染科、超声医学等 ,陕西省 
西安交通大学附属口腔医院 ,西安市西五路98号 ,710004,029-87275706〓87273400 ,三甲 ,口腔颌面外科、颌面成形外科、口腔正畸科、口腔内科 ,陕西省 
中医药研究院附属医院〓陕西省中医院 ,西安市西华门20号 ,710003,029-87213310〓87240861 ,三甲 ,肝胆科、针灸科、脑内科、消化内科 ,陕西省 
陕西省人民医院 ,西安市友谊西路256号 ,710068,029-85251331〓85251410 ,三甲 ,心血管疾病科、神经科、消化科、血液内科、肝胆科、耳鼻喉科、老年病科 ,陕西省 
陕西省第三人民医院〓陕西省肿瘤医院 ,西安市雁塔西路309号 ,710061,029-85254081 ,三甲 ,消化系统肿瘤外科、肝肿瘤、肿瘤放疗科、中西医结合科、普外科、胸外科、妇科、放疗科等 ,陕西省 
陕西省妇幼保健院 ,西安市后宰门73号 ,710003,029-87234916(总) ,三甲 ,妇科、乳腺科、儿内科、儿外科、病毒研究、泌尿外科、皮肤科、眼科等 ,陕西省 
陕西省结核病防治院 ,西安市长安区太乙乡上湾村甲字1号 ,710100,029-85899056 ,三甲 ,结核病科、骨外科、淋巴结核科等 ,陕西省 
西安市中心医院 ,西安市北大街后宰门4号 ,710001,029-87218916(总) ,三甲 ,血液病科、神经外科、整型外科、放射科、消化内科、妇科等 ,陕西省 
西安市第一医院 ,西安市碑林区南大街粉巷30号 ,710002,029-87630969〓87630888 ,三甲 ,眼科、心血管内科、心脏外科 ,陕西省 
西安市第四医院 ,西安新城区解放路21号 ,710004,029-87441539〓87420006 ,三甲 ,妇产科、神经内科、耳鼻喉科、眼科 ,陕西省 
西安市中医院 ,西安市东大街183号(大差市口) ,710001,029-87278931〓87273564 ,三甲 ,肝病科、神经内科、心血管病等 ,陕西省 
西安市儿童医院 ,西安市西举院巷69号 ,710003,029-87692000 ,三甲 ,NICU、PICU、呼吸科、消化内分泌科、心肾科、血液科、新生儿科、神经科、传染科、外科、急诊科、小儿妇科、眼科、口腔科、耳鼻喉科、皮肤科、中西医结合科、儿童保健科、同位素科等。 ,陕西省 
西安市红十字会医院 ,西安市南稍门红会路76号 ,710054,029-87800002〓87892090 ,三甲 ,神经脊柱外科、中西医结合骨科、手外中心、创伤骨科等 ,陕西省 
西安铁路中心医院 ,西安市友谊东路 ,710054,029-82322257 ,三甲 ,整形科、骨外科、肝胆外科、老年病科、中医科、烧伤科等 ,陕西省 
陕西中医学院附属医院 ,咸阳市渭阳西路 ,712000,0910-3313775(总机) ,三甲 ,心脑血管病、肿瘤科、骨伤科、肝病、呼吸科、烧伤科、眼科、心内科等 ,陕西省 
榆林市第一医院 ,绥德县文化路59号 ,718000,0912-5641700〓5561895 ,三甲 ,癫痫病、不孕不育、烧伤科等 ,陕西省 
汉中市中心医院 ,汉中市康复路22号 ,723000,0916-2681176 ,三甲 ,耳鼻咽喉科、功能科、口腔科等 ,陕西省 
汉中三二Ｏ一医院 ,汉中市汉江路46号 ,723000,0916-2523847〓2383514 ,三甲 ,内分泌内科、消化内科、呼吸内科 ,陕西省 
宝鸡市中心医院 ,宝鸡市渭滨区姜潭路8号 ,721008,0917-3390580〓3397777 ,三甲 ,骨外科、中毒科、呼吸内科、肿瘤科、人工肾透析中心、小儿麻痹后遗症矫治中心、糖尿病等 ,陕西省 
宝鸡市中医院〓陕西中医学院附属宝鸡医院 ,宝鸡市金台区宝福路43号 ,721001,0917-3652736〓3513531 ,三甲 ,针灸科、骨伤科、骨病科等 ,陕西省 
中国人民解放军第四军医大学西京医院 ,西安市长乐西路15号 ,710032,029-83375001〓83375015 ,三甲 ,心血管外科、心血管内科、神经外科、眼科、皮肤科、体外循环科、骨科、消化内科等 ,陕西省 
中国人民解放军第四军医大学唐都医院 ,西安市灞桥区新寺路 ,710038,029-83377230 ,三甲 ,心血管内科、烧伤整形科、整形外科、神经外科、骨肿瘤科、普外科、胸腔外科、消化内科等 ,陕西省 
中国人民解放军第四军医大学口腔医院〓秦都口腔医院 ,西安市康复路中段1号 ,710000,029-83376011 ,三甲 ,口腔科 ,陕西省 
中国人民解放军第三二三医院 ,西安市建设西路6号 ,710000,029-85523393〓85518266 ,三甲 ,脊柱外科、血液透析、肝胆外科、五官颌面外科、心血管内科等 ,陕西省 
中国人民解放军空军四五一医院 ,西安市友谊东路269号 ,710054,029-82257123 ,三甲 ,,陕西省 
武警陕西总队医院 ,西安市南二环刘家庄 ,710054,029-82223616 ,三甲 ,,陕西省 
中国人民解放军第三中心医院 ,宝鸡市东风路45号 ,721004,0917-3411270〓3424397〓3415511 ,三甲 ,神经外科、精神内科、神经内科 ,陕西省 
甘肃省人民医院 ,兰州市东岗西路160号 ,730000,0931-8281943 ,三甲 ,医学影像中心、烧伤整形、小儿科、口腔科、心血管病、肛肠科、腹腔镜诊疗中心、检验中心、老年病研究所、消化科 ,甘肃省 
甘肃省中医院 ,兰州市七里河区安西路388号 ,730050,0931-2335211 ,三甲 ,心脑科、消化科、骨伤科、药剂科等 ,甘肃省 
兰州大学第一附属医院 ,兰州市东岗西路1号 ,730000,0931-8625200(总机) ,三甲 ,血液病科、心脏外科、内分泌科、感染病科、呼吸科、药剂科、普通外科、小儿外科、心电生理介入科 ,甘肃省 
兰州大学第二附属医院 ,兰州市城关区萃英门80号 ,730030,0931-8942279〓8942114 ,三甲 ,泌尿外科、神经外科、骨科、神经内科、精神科等 ,甘肃省 
兰州第一人民医院 ,兰州市吴家园1号 ,730000,0931-2867286〓2352721 ,三甲 ,肝胆外科、骨外科、传染科、心血管科、消化科、内视镜科等 ,甘肃省 
兰州军区总医院 ,兰州市七里河区小西湖西街98号 ,730050,0931-8975003 ,三甲 ,骨科、泌尿外科、血液病科、整形外科、神经外科、显微外科、心脑血管病等 ,甘肃省 
中国人民解放军第一医院〓三爱堂医院 ,兰州市小稍门外2号 ,730030,0931-8974003〓8974019 ,三甲 ,肝胆外科、眼科、老年科、消化内科、泌尿内科、神经内科、普外科、泌尿外科、骨科、儿内科、儿外科、口腔科、耳喉鼻科、传染科、放射科等 ,甘肃省 
中国人民解放军第七医院 ,甘肃省临夏市西川 ,731100,0930-6281452 ,三甲 ,创伤骨科、普外肛肠科、烧伤整形、妇产、消化、泌尿、心血管、内分泌、呼吸、心肾、口腔、高压氧康复科、急救中心 ,甘肃省 
中国人民解放军第四七三医院〓空军兰州医院 ,甘肃兰州市安宁东路818号 ,730070,0931-8976338 ,三甲 ,骨科、妇产科、皮肤科、口腔整形美容科、耳鼻喉科、心胸脑外科、神经内科等 ,甘肃省
青海大学医学院附属医院〓青海大学省红十字博爱医院〓青海大学医学院附属肿瘤医院 ,西宁市同仁路29号 ,810001,0971-6162022〓6162000 ,三甲 ,呼吸内科、消化内科、肿瘤内科、普外科、烧伤科、妇科、产科、器官移植手术等 ,青海省 
青海大学医学院附属藏医院〓青海省藏医院 ,西宁市南山东路97号 ,810007,0971-8147370〓8141712 ,三甲 ,皮肤性病科、肝胆外科、妇科、心血管内科、消化内科、中医针灸科、神经内科、普外科等 ,青海省 
青海省人民医院 ,青海省西宁市共和路2号 ,810007,0971-8177983〓8177911 ,三甲 ,眼科、血液科、肝胆脾外、颌面整形外科、老年病、高原病、心血管内科、呼吸内科等 ,青海省 
青海省第三人民医院〓青海省精神卫生防治院 ,西宁市果洛路41号 ,810007,0971-8175326 ,三甲 ,,青海省 
青海省中医院〓青海省中西医结合医院 ,西宁市城中区七一路338号 ,810000,0971-8456222〓8458057 ,三甲 ,骨伤科、泌尿科、疮疡科、妇科场、消化病、肛肠病、神经外科、中医外科、针灸科等 ,青海省 
青海省妇产儿童医院 ,西宁市共和路15号 ,810007,0971-8175199〓8179899 ,三甲 ,儿科 ,青海省 
青海省康复医院 ,西宁市八一路106号 ,810007,0971-8805686〓8805916 ,三甲 ,类风湿颈腰椎病科、心脑血管科、呼吸消化科、肿瘤康复科等 ,青海省 
中国人民解放军第四医院 ,西宁市八一路73号 ,810014,0971-8175226 ,三甲 ,,青海省 
宁夏医学院附属医院 ,银川市胜利南街78号 ,750004,0951-4091488(总机) ,三甲 ,心血管内外科、神经内外科、麻醉科、肾脏内科、泌尿外科、肿瘤内外科、烧伤整形科、放疗科、放射科等 ,宁夏回族自 
宁夏回族自治区人民医院 ,银川市西夏区怀远西路 ,750021,0951-2063340 ,三甲 ,眼科、骨科 ,宁夏回族自 
宁夏医学院第二附属医院〓银川市第一人民医院 ,银川市利群西街2号 ,750001,0951-6192235〓6018498 ,三甲 ,小儿内科、眼科、创伤科、手足外科、肿瘤科等 ,宁夏回族自 
新疆医科大学第一附属医院 ,乌鲁木齐市新市区鲤鱼山路1号 ,830054,0991-4362658〓4362641 ,三甲 ,妇科、产科、心血管内科、普外科、泌尿外科、骨科、儿内科、儿外科、中医内科、呼吸内科、传染科、皮肤性病科、血液内科、神经内科、神经外科 ,新疆维吾尔 
新疆创伤外科医院〓新疆医科大学第二附属医院 ,乌鲁木齐市七道湾路50号 ,830028,0991-4695464〓4694175 ,三甲 ,呼吸内科、心血管内科、肾内科、血液内科、神经内科、消化内科、老年病科、普外科、骨科、肿瘤科、胸外科、神经外科、泌尿外科、妇产科、耳鼻喉科、皮肤科、口腔科等 ,新疆维吾尔 
新疆医科大学附属肿瘤医院 ,乌鲁木齐市新市区北京南路30号 ,830011,0991-3835216 ,三甲 ,乳腺癌、肿瘤科、腹部外科、肿瘤外科 ,新疆维吾尔 
新疆自治区人民医院 ,乌鲁木齐市天山区天池路91号 ,830001,0991-8562233 ,三甲 ,高血压、风湿病、心血管疾病、内外科、小儿科、皮肤科、胰腺专科等 ,新疆维吾尔 
新疆医科大学附属中医医院〓新疆自治区中医院〓新疆自治区维吾尔中医院 ,乌鲁木齐市黄河路68号 ,830000,0991-5848747〓5848045 ,三甲 ,肝胃、脑血管、骨伤、肛肠 ,新疆维吾尔 
新疆维吾尔自治区维吾尔医医院 ,乌鲁木齐市天山区延安路36号 ,830001,0991-2566307〓2566264 ,三甲 ,白癫风、银屑病、糖尿病、哮喘病、心脑血管病、男性病、骨伤科、皮肤病、关节炎等 ,新疆维吾尔 
新疆自治区肺科医院 ,乌鲁木齐市天山区延安路8号 ,830001,0991-2862181 ,三甲 ,结核内科、肺外科、糖尿病专科、哮喘专科 ,新疆维吾尔 
乌鲁木齐市友谊医院〓乌鲁木齐市第三医院 ,乌鲁木齐市胜利路22号 ,830049,0991-2862373 ,三甲 ,椎间盘治疗、血疗、血液透析、碎石 ,新疆维吾尔 
新疆生产建设兵团总医院〓石沙子大学医学院第二附属医院 ,乌鲁木齐市天山区五星路15号 ,830002,0991-2622728(总机) ,三甲 ,创伤外科、泌尿外科 ,新疆维吾尔
新疆医科大学第五附属医院(原乌鲁木齐铁路中心医院) ,乌鲁木齐市新市区河南西路9号 ,830011,0991-7922957 ,三甲 ,脑外科、胸心外科 ,新疆维吾尔 
新疆石油管理局乌鲁木齐医院 ,乌鲁木齐市沙依巴克区友好北路9号 ,830000,0990-4291554〓6861527 ,三甲 ,传染病科、中医科、皮肤科 ,新疆维吾尔 
新疆石油管理局职工总医院 ,克拉玛依市 ,834000,0990-6861348〓6882810 ,三甲 ,职业病防治科、传染病科 ,新疆维吾尔 
石河子大学医学院第一附属医院 ,石河子市红山 ,832008,0993-2858573 ,三甲 ,胸心外科、泌尿外科 ,新疆维吾尔 
新疆伊犁哈萨克自治州友谊医院 ,伊犁地区伊宁市斯大林街92号 ,835000,0999-8024244 ,三甲 ,骨科、心内科、神经内科、心外科、眼科、肿瘤科、肾科 ,新疆维吾尔 
中国人民解放军第四七四医院〓空军乌鲁木齐医院 ,乌鲁木齐市北京北路26号 ,830011,0991-5954114 ,三甲 ,口腔科、眼科、显微外科等 ,新疆维吾尔 
中国人民解放军兰州军区乌鲁木齐总医院 ,乌鲁木齐友好北路41号 ,830000,0991-4842256 ,三甲 ,普外科、儿外科、呼吸科、消化科、心外科、烧伤科、神经外科、骨科、针灸科、胸外科、骨伤推拿科、神经内科、妇科等 ,新疆维吾尔 
